<?xml version="1.0" encoding="UTF-8"?>
<gpx version="1.1" creator="TrainLCD scripts/generate-location-gpx.mjs" xmlns="http://www.topografix.com/GPX/1/1">
<wpt lat="34.8211140" lon="135.7686640">
<time>2026-01-01T00:00:00.000Z</time>
</wpt>
<wpt lat="34.8211112" lon="135.7686657">
<time>2026-01-01T00:00:01.000Z</time>
</wpt>
<wpt lat="34.8211028" lon="135.7686710">
<time>2026-01-01T00:00:02.000Z</time>
</wpt>
<wpt lat="34.8210888" lon="135.7686797">
<time>2026-01-01T00:00:03.000Z</time>
</wpt>
<wpt lat="34.8210692" lon="135.7686920">
<time>2026-01-01T00:00:04.000Z</time>
</wpt>
<wpt lat="34.8210439" lon="135.7687077">
<time>2026-01-01T00:00:05.000Z</time>
</wpt>
<wpt lat="34.8210131" lon="135.7687269">
<time>2026-01-01T00:00:06.000Z</time>
</wpt>
<wpt lat="34.8209767" lon="135.7687496">
<time>2026-01-01T00:00:07.000Z</time>
</wpt>
<wpt lat="34.8209346" lon="135.7687758">
<time>2026-01-01T00:00:08.000Z</time>
</wpt>
<wpt lat="34.8208870" lon="135.7688055">
<time>2026-01-01T00:00:09.000Z</time>
</wpt>
<wpt lat="34.8208338" lon="135.7688387">
<time>2026-01-01T00:00:10.000Z</time>
</wpt>
<wpt lat="34.8207749" lon="135.7688754">
<time>2026-01-01T00:00:11.000Z</time>
</wpt>
<wpt lat="34.8207104" lon="135.7689156">
<time>2026-01-01T00:00:12.000Z</time>
</wpt>
<wpt lat="34.8206404" lon="135.7689593">
<time>2026-01-01T00:00:13.000Z</time>
</wpt>
<wpt lat="34.8205647" lon="135.7690065">
<time>2026-01-01T00:00:14.000Z</time>
</wpt>
<wpt lat="34.8204834" lon="135.7690571">
<time>2026-01-01T00:00:15.000Z</time>
</wpt>
<wpt lat="34.8203966" lon="135.7691113">
<time>2026-01-01T00:00:16.000Z</time>
</wpt>
<wpt lat="34.8203041" lon="135.7691689">
<time>2026-01-01T00:00:17.000Z</time>
</wpt>
<wpt lat="34.8202060" lon="135.7692301">
<time>2026-01-01T00:00:18.000Z</time>
</wpt>
<wpt lat="34.8201023" lon="135.7692947">
<time>2026-01-01T00:00:19.000Z</time>
</wpt>
<wpt lat="34.8199930" lon="135.7693629">
<time>2026-01-01T00:00:20.000Z</time>
</wpt>
<wpt lat="34.8198781" lon="135.7694345">
<time>2026-01-01T00:00:21.000Z</time>
</wpt>
<wpt lat="34.8197576" lon="135.7695096">
<time>2026-01-01T00:00:22.000Z</time>
</wpt>
<wpt lat="34.8196315" lon="135.7695883">
<time>2026-01-01T00:00:23.000Z</time>
</wpt>
<wpt lat="34.8194998" lon="135.7696704">
<time>2026-01-01T00:00:24.000Z</time>
</wpt>
<wpt lat="34.8193625" lon="135.7697560">
<time>2026-01-01T00:00:25.000Z</time>
</wpt>
<wpt lat="34.8192207" lon="135.7698444">
<time>2026-01-01T00:00:26.000Z</time>
</wpt>
<wpt lat="34.8190785" lon="135.7699331">
<time>2026-01-01T00:00:27.000Z</time>
</wpt>
<wpt lat="34.8189363" lon="135.7700217">
<time>2026-01-01T00:00:28.000Z</time>
</wpt>
<wpt lat="34.8187941" lon="135.7701104">
<time>2026-01-01T00:00:29.000Z</time>
</wpt>
<wpt lat="34.8186519" lon="135.7701990">
<time>2026-01-01T00:00:30.000Z</time>
</wpt>
<wpt lat="34.8185097" lon="135.7702877">
<time>2026-01-01T00:00:31.000Z</time>
</wpt>
<wpt lat="34.8183675" lon="135.7703763">
<time>2026-01-01T00:00:32.000Z</time>
</wpt>
<wpt lat="34.8182253" lon="135.7704650">
<time>2026-01-01T00:00:33.000Z</time>
</wpt>
<wpt lat="34.8180831" lon="135.7705536">
<time>2026-01-01T00:00:34.000Z</time>
</wpt>
<wpt lat="34.8179409" lon="135.7706423">
<time>2026-01-01T00:00:35.000Z</time>
</wpt>
<wpt lat="34.8177987" lon="135.7707309">
<time>2026-01-01T00:00:36.000Z</time>
</wpt>
<wpt lat="34.8176565" lon="135.7708196">
<time>2026-01-01T00:00:37.000Z</time>
</wpt>
<wpt lat="34.8175143" lon="135.7709083">
<time>2026-01-01T00:00:38.000Z</time>
</wpt>
<wpt lat="34.8173721" lon="135.7709969">
<time>2026-01-01T00:00:39.000Z</time>
</wpt>
<wpt lat="34.8172299" lon="135.7710856">
<time>2026-01-01T00:00:40.000Z</time>
</wpt>
<wpt lat="34.8170877" lon="135.7711742">
<time>2026-01-01T00:00:41.000Z</time>
</wpt>
<wpt lat="34.8169455" lon="135.7712629">
<time>2026-01-01T00:00:42.000Z</time>
</wpt>
<wpt lat="34.8168033" lon="135.7713515">
<time>2026-01-01T00:00:43.000Z</time>
</wpt>
<wpt lat="34.8166611" lon="135.7714402">
<time>2026-01-01T00:00:44.000Z</time>
</wpt>
<wpt lat="34.8165189" lon="135.7715288">
<time>2026-01-01T00:00:45.000Z</time>
</wpt>
<wpt lat="34.8163767" lon="135.7716175">
<time>2026-01-01T00:00:46.000Z</time>
</wpt>
<wpt lat="34.8162345" lon="135.7717061">
<time>2026-01-01T00:00:47.000Z</time>
</wpt>
<wpt lat="34.8160923" lon="135.7717948">
<time>2026-01-01T00:00:48.000Z</time>
</wpt>
<wpt lat="34.8159501" lon="135.7718834">
<time>2026-01-01T00:00:49.000Z</time>
</wpt>
<wpt lat="34.8158079" lon="135.7719721">
<time>2026-01-01T00:00:50.000Z</time>
</wpt>
<wpt lat="34.8156657" lon="135.7720608">
<time>2026-01-01T00:00:51.000Z</time>
</wpt>
<wpt lat="34.8155235" lon="135.7721494">
<time>2026-01-01T00:00:52.000Z</time>
</wpt>
<wpt lat="34.8153813" lon="135.7722381">
<time>2026-01-01T00:00:53.000Z</time>
</wpt>
<wpt lat="34.8152391" lon="135.7723267">
<time>2026-01-01T00:00:54.000Z</time>
</wpt>
<wpt lat="34.8150969" lon="135.7724154">
<time>2026-01-01T00:00:55.000Z</time>
</wpt>
<wpt lat="34.8149547" lon="135.7725040">
<time>2026-01-01T00:00:56.000Z</time>
</wpt>
<wpt lat="34.8148125" lon="135.7725927">
<time>2026-01-01T00:00:57.000Z</time>
</wpt>
<wpt lat="34.8146703" lon="135.7726813">
<time>2026-01-01T00:00:58.000Z</time>
</wpt>
<wpt lat="34.8145281" lon="135.7727700">
<time>2026-01-01T00:00:59.000Z</time>
</wpt>
<wpt lat="34.8143859" lon="135.7728586">
<time>2026-01-01T00:01:00.000Z</time>
</wpt>
<wpt lat="34.8142437" lon="135.7729473">
<time>2026-01-01T00:01:01.000Z</time>
</wpt>
<wpt lat="34.8141015" lon="135.7730359">
<time>2026-01-01T00:01:02.000Z</time>
</wpt>
<wpt lat="34.8139593" lon="135.7731246">
<time>2026-01-01T00:01:03.000Z</time>
</wpt>
<wpt lat="34.8138171" lon="135.7732133">
<time>2026-01-01T00:01:04.000Z</time>
</wpt>
<wpt lat="34.8136749" lon="135.7733019">
<time>2026-01-01T00:01:05.000Z</time>
</wpt>
<wpt lat="34.8135327" lon="135.7733906">
<time>2026-01-01T00:01:06.000Z</time>
</wpt>
<wpt lat="34.8133905" lon="135.7734792">
<time>2026-01-01T00:01:07.000Z</time>
</wpt>
<wpt lat="34.8132483" lon="135.7735679">
<time>2026-01-01T00:01:08.000Z</time>
</wpt>
<wpt lat="34.8131061" lon="135.7736565">
<time>2026-01-01T00:01:09.000Z</time>
</wpt>
<wpt lat="34.8129639" lon="135.7737452">
<time>2026-01-01T00:01:10.000Z</time>
</wpt>
<wpt lat="34.8128217" lon="135.7738338">
<time>2026-01-01T00:01:11.000Z</time>
</wpt>
<wpt lat="34.8126795" lon="135.7739225">
<time>2026-01-01T00:01:12.000Z</time>
</wpt>
<wpt lat="34.8125373" lon="135.7740111">
<time>2026-01-01T00:01:13.000Z</time>
</wpt>
<wpt lat="34.8123951" lon="135.7740998">
<time>2026-01-01T00:01:14.000Z</time>
</wpt>
<wpt lat="34.8122529" lon="135.7741884">
<time>2026-01-01T00:01:15.000Z</time>
</wpt>
<wpt lat="34.8121107" lon="135.7742771">
<time>2026-01-01T00:01:16.000Z</time>
</wpt>
<wpt lat="34.8119685" lon="135.7743658">
<time>2026-01-01T00:01:17.000Z</time>
</wpt>
<wpt lat="34.8118263" lon="135.7744544">
<time>2026-01-01T00:01:18.000Z</time>
</wpt>
<wpt lat="34.8116841" lon="135.7745431">
<time>2026-01-01T00:01:19.000Z</time>
</wpt>
<wpt lat="34.8115419" lon="135.7746317">
<time>2026-01-01T00:01:20.000Z</time>
</wpt>
<wpt lat="34.8113997" lon="135.7747204">
<time>2026-01-01T00:01:21.000Z</time>
</wpt>
<wpt lat="34.8112575" lon="135.7748090">
<time>2026-01-01T00:01:22.000Z</time>
</wpt>
<wpt lat="34.8111153" lon="135.7748977">
<time>2026-01-01T00:01:23.000Z</time>
</wpt>
<wpt lat="34.8109732" lon="135.7749863">
<time>2026-01-01T00:01:24.000Z</time>
</wpt>
<wpt lat="34.8108310" lon="135.7750750">
<time>2026-01-01T00:01:25.000Z</time>
</wpt>
<wpt lat="34.8106888" lon="135.7751636">
<time>2026-01-01T00:01:26.000Z</time>
</wpt>
<wpt lat="34.8105466" lon="135.7752523">
<time>2026-01-01T00:01:27.000Z</time>
</wpt>
<wpt lat="34.8104044" lon="135.7753409">
<time>2026-01-01T00:01:28.000Z</time>
</wpt>
<wpt lat="34.8102622" lon="135.7754296">
<time>2026-01-01T00:01:29.000Z</time>
</wpt>
<wpt lat="34.8101200" lon="135.7755183">
<time>2026-01-01T00:01:30.000Z</time>
</wpt>
<wpt lat="34.8099778" lon="135.7756069">
<time>2026-01-01T00:01:31.000Z</time>
</wpt>
<wpt lat="34.8098356" lon="135.7756956">
<time>2026-01-01T00:01:32.000Z</time>
</wpt>
<wpt lat="34.8096934" lon="135.7757842">
<time>2026-01-01T00:01:33.000Z</time>
</wpt>
<wpt lat="34.8095512" lon="135.7758729">
<time>2026-01-01T00:01:34.000Z</time>
</wpt>
<wpt lat="34.8094090" lon="135.7759615">
<time>2026-01-01T00:01:35.000Z</time>
</wpt>
<wpt lat="34.8092668" lon="135.7760502">
<time>2026-01-01T00:01:36.000Z</time>
</wpt>
<wpt lat="34.8091246" lon="135.7761388">
<time>2026-01-01T00:01:37.000Z</time>
</wpt>
<wpt lat="34.8089824" lon="135.7762275">
<time>2026-01-01T00:01:38.000Z</time>
</wpt>
<wpt lat="34.8088402" lon="135.7763161">
<time>2026-01-01T00:01:39.000Z</time>
</wpt>
<wpt lat="34.8086980" lon="135.7764048">
<time>2026-01-01T00:01:40.000Z</time>
</wpt>
<wpt lat="34.8085558" lon="135.7764934">
<time>2026-01-01T00:01:41.000Z</time>
</wpt>
<wpt lat="34.8084136" lon="135.7765821">
<time>2026-01-01T00:01:42.000Z</time>
</wpt>
<wpt lat="34.8082714" lon="135.7766708">
<time>2026-01-01T00:01:43.000Z</time>
</wpt>
<wpt lat="34.8081292" lon="135.7767594">
<time>2026-01-01T00:01:44.000Z</time>
</wpt>
<wpt lat="34.8079870" lon="135.7768481">
<time>2026-01-01T00:01:45.000Z</time>
</wpt>
<wpt lat="34.8078448" lon="135.7769367">
<time>2026-01-01T00:01:46.000Z</time>
</wpt>
<wpt lat="34.8077026" lon="135.7770254">
<time>2026-01-01T00:01:47.000Z</time>
</wpt>
<wpt lat="34.8075604" lon="135.7771140">
<time>2026-01-01T00:01:48.000Z</time>
</wpt>
<wpt lat="34.8074182" lon="135.7772027">
<time>2026-01-01T00:01:49.000Z</time>
</wpt>
<wpt lat="34.8072760" lon="135.7772913">
<time>2026-01-01T00:01:50.000Z</time>
</wpt>
<wpt lat="34.8071338" lon="135.7773800">
<time>2026-01-01T00:01:51.000Z</time>
</wpt>
<wpt lat="34.8069916" lon="135.7774686">
<time>2026-01-01T00:01:52.000Z</time>
</wpt>
<wpt lat="34.8068494" lon="135.7775573">
<time>2026-01-01T00:01:53.000Z</time>
</wpt>
<wpt lat="34.8067072" lon="135.7776459">
<time>2026-01-01T00:01:54.000Z</time>
</wpt>
<wpt lat="34.8065650" lon="135.7777346">
<time>2026-01-01T00:01:55.000Z</time>
</wpt>
<wpt lat="34.8064247" lon="135.7778221">
<time>2026-01-01T00:01:56.000Z</time>
</wpt>
<wpt lat="34.8062914" lon="135.7779052">
<time>2026-01-01T00:01:57.000Z</time>
</wpt>
<wpt lat="34.8061653" lon="135.7779838">
<time>2026-01-01T00:01:58.000Z</time>
</wpt>
<wpt lat="34.8060464" lon="135.7780579">
<time>2026-01-01T00:01:59.000Z</time>
</wpt>
<wpt lat="34.8059347" lon="135.7781276">
<time>2026-01-01T00:02:00.000Z</time>
</wpt>
<wpt lat="34.8058302" lon="135.7781927">
<time>2026-01-01T00:02:01.000Z</time>
</wpt>
<wpt lat="34.8057329" lon="135.7782534">
<time>2026-01-01T00:02:02.000Z</time>
</wpt>
<wpt lat="34.8056429" lon="135.7783095">
<time>2026-01-01T00:02:03.000Z</time>
</wpt>
<wpt lat="34.8055600" lon="135.7783612">
<time>2026-01-01T00:02:04.000Z</time>
</wpt>
<wpt lat="34.8054843" lon="135.7784084">
<time>2026-01-01T00:02:05.000Z</time>
</wpt>
<wpt lat="34.8054159" lon="135.7784510">
<time>2026-01-01T00:02:06.000Z</time>
</wpt>
<wpt lat="34.8053546" lon="135.7784892">
<time>2026-01-01T00:02:07.000Z</time>
</wpt>
<wpt lat="34.8053006" lon="135.7785229">
<time>2026-01-01T00:02:08.000Z</time>
</wpt>
<wpt lat="34.8052537" lon="135.7785521">
<time>2026-01-01T00:02:09.000Z</time>
</wpt>
<wpt lat="34.8052141" lon="135.7785768">
<time>2026-01-01T00:02:10.000Z</time>
</wpt>
<wpt lat="34.8051817" lon="135.7785971">
<time>2026-01-01T00:02:11.000Z</time>
</wpt>
<wpt lat="34.8051564" lon="135.7786128">
<time>2026-01-01T00:02:12.000Z</time>
</wpt>
<wpt lat="34.8051384" lon="135.7786240">
<time>2026-01-01T00:02:13.000Z</time>
</wpt>
<wpt lat="34.8051276" lon="135.7786308">
<time>2026-01-01T00:02:14.000Z</time>
</wpt>
<wpt lat="34.8051240" lon="135.7786330">
<time>2026-01-01T00:02:15.000Z</time>
</wpt>
<wpt lat="34.8051240" lon="135.7786330">
<time>2026-01-01T00:02:16.000Z</time>
</wpt>
<wpt lat="34.8051240" lon="135.7786330">
<time>2026-01-01T00:02:17.000Z</time>
</wpt>
<wpt lat="34.8051240" lon="135.7786330">
<time>2026-01-01T00:02:18.000Z</time>
</wpt>
<wpt lat="34.8051240" lon="135.7786330">
<time>2026-01-01T00:02:19.000Z</time>
</wpt>
<wpt lat="34.8051240" lon="135.7786330">
<time>2026-01-01T00:02:20.000Z</time>
</wpt>
<wpt lat="34.8051240" lon="135.7786330">
<time>2026-01-01T00:02:21.000Z</time>
</wpt>
<wpt lat="34.8051240" lon="135.7786330">
<time>2026-01-01T00:02:22.000Z</time>
</wpt>
<wpt lat="34.8051240" lon="135.7786330">
<time>2026-01-01T00:02:23.000Z</time>
</wpt>
<wpt lat="34.8051240" lon="135.7786330">
<time>2026-01-01T00:02:24.000Z</time>
</wpt>
<wpt lat="34.8051240" lon="135.7786330">
<time>2026-01-01T00:02:25.000Z</time>
</wpt>
<wpt lat="34.8051240" lon="135.7786330">
<time>2026-01-01T00:02:26.000Z</time>
</wpt>
<wpt lat="34.8051240" lon="135.7786330">
<time>2026-01-01T00:02:27.000Z</time>
</wpt>
<wpt lat="34.8051240" lon="135.7786330">
<time>2026-01-01T00:02:28.000Z</time>
</wpt>
<wpt lat="34.8051240" lon="135.7786330">
<time>2026-01-01T00:02:29.000Z</time>
</wpt>
<wpt lat="34.8051240" lon="135.7786330">
<time>2026-01-01T00:02:30.000Z</time>
</wpt>
<wpt lat="34.8051240" lon="135.7786330">
<time>2026-01-01T00:02:31.000Z</time>
</wpt>
<wpt lat="34.8051240" lon="135.7786330">
<time>2026-01-01T00:02:32.000Z</time>
</wpt>
<wpt lat="34.8051240" lon="135.7786330">
<time>2026-01-01T00:02:33.000Z</time>
</wpt>
<wpt lat="34.8051240" lon="135.7786330">
<time>2026-01-01T00:02:34.000Z</time>
</wpt>
<wpt lat="34.8051240" lon="135.7786330">
<time>2026-01-01T00:02:35.000Z</time>
</wpt>
<wpt lat="34.8051240" lon="135.7786330">
<time>2026-01-01T00:02:36.000Z</time>
</wpt>
<wpt lat="34.8051240" lon="135.7786330">
<time>2026-01-01T00:02:37.000Z</time>
</wpt>
<wpt lat="34.8051240" lon="135.7786330">
<time>2026-01-01T00:02:38.000Z</time>
</wpt>
<wpt lat="34.8051240" lon="135.7786330">
<time>2026-01-01T00:02:39.000Z</time>
</wpt>
<wpt lat="34.8051240" lon="135.7786330">
<time>2026-01-01T00:02:40.000Z</time>
</wpt>
<wpt lat="34.8051240" lon="135.7786330">
<time>2026-01-01T00:02:41.000Z</time>
</wpt>
<wpt lat="34.8051240" lon="135.7786330">
<time>2026-01-01T00:02:42.000Z</time>
</wpt>
<wpt lat="34.8051240" lon="135.7786330">
<time>2026-01-01T00:02:43.000Z</time>
</wpt>
<wpt lat="34.8051240" lon="135.7786330">
<time>2026-01-01T00:02:44.000Z</time>
</wpt>
<wpt lat="34.8051240" lon="135.7786330">
<time>2026-01-01T00:02:45.000Z</time>
</wpt>
<wpt lat="34.8051240" lon="135.7786330">
<time>2026-01-01T00:02:46.000Z</time>
</wpt>
<wpt lat="34.8051240" lon="135.7786330">
<time>2026-01-01T00:02:47.000Z</time>
</wpt>
<wpt lat="34.8051240" lon="135.7786330">
<time>2026-01-01T00:02:48.000Z</time>
</wpt>
<wpt lat="34.8051240" lon="135.7786330">
<time>2026-01-01T00:02:49.000Z</time>
</wpt>
<wpt lat="34.8051240" lon="135.7786330">
<time>2026-01-01T00:02:50.000Z</time>
</wpt>
<wpt lat="34.8051240" lon="135.7786330">
<time>2026-01-01T00:02:51.000Z</time>
</wpt>
<wpt lat="34.8051240" lon="135.7786330">
<time>2026-01-01T00:02:52.000Z</time>
</wpt>
<wpt lat="34.8051215" lon="135.7786352">
<time>2026-01-01T00:02:53.000Z</time>
</wpt>
<wpt lat="34.8051139" lon="135.7786418">
<time>2026-01-01T00:02:54.000Z</time>
</wpt>
<wpt lat="34.8051013" lon="135.7786529">
<time>2026-01-01T00:02:55.000Z</time>
</wpt>
<wpt lat="34.8050836" lon="135.7786683">
<time>2026-01-01T00:02:56.000Z</time>
</wpt>
<wpt lat="34.8050609" lon="135.7786882">
<time>2026-01-01T00:02:57.000Z</time>
</wpt>
<wpt lat="34.8050332" lon="135.7787125">
<time>2026-01-01T00:02:58.000Z</time>
</wpt>
<wpt lat="34.8050004" lon="135.7787412">
<time>2026-01-01T00:02:59.000Z</time>
</wpt>
<wpt lat="34.8049625" lon="135.7787744">
<time>2026-01-01T00:03:00.000Z</time>
</wpt>
<wpt lat="34.8049197" lon="135.7788119">
<time>2026-01-01T00:03:01.000Z</time>
</wpt>
<wpt lat="34.8048717" lon="135.7788539">
<time>2026-01-01T00:03:02.000Z</time>
</wpt>
<wpt lat="34.8048187" lon="135.7789003">
<time>2026-01-01T00:03:03.000Z</time>
</wpt>
<wpt lat="34.8047607" lon="135.7789511">
<time>2026-01-01T00:03:04.000Z</time>
</wpt>
<wpt lat="34.8046976" lon="135.7790063">
<time>2026-01-01T00:03:05.000Z</time>
</wpt>
<wpt lat="34.8046295" lon="135.7790659">
<time>2026-01-01T00:03:06.000Z</time>
</wpt>
<wpt lat="34.8045564" lon="135.7791300">
<time>2026-01-01T00:03:07.000Z</time>
</wpt>
<wpt lat="34.8044782" lon="135.7791985">
<time>2026-01-01T00:03:08.000Z</time>
</wpt>
<wpt lat="34.8043949" lon="135.7792714">
<time>2026-01-01T00:03:09.000Z</time>
</wpt>
<wpt lat="34.8043066" lon="135.7793487">
<time>2026-01-01T00:03:10.000Z</time>
</wpt>
<wpt lat="34.8042133" lon="135.7794304">
<time>2026-01-01T00:03:11.000Z</time>
</wpt>
<wpt lat="34.8041149" lon="135.7795165">
<time>2026-01-01T00:03:12.000Z</time>
</wpt>
<wpt lat="34.8040114" lon="135.7796071">
<time>2026-01-01T00:03:13.000Z</time>
</wpt>
<wpt lat="34.8039030" lon="135.7797021">
<time>2026-01-01T00:03:14.000Z</time>
</wpt>
<wpt lat="34.8037904" lon="135.7798007">
<time>2026-01-01T00:03:15.000Z</time>
</wpt>
<wpt lat="34.8036774" lon="135.7798996">
<time>2026-01-01T00:03:16.000Z</time>
</wpt>
<wpt lat="34.8035644" lon="135.7799985">
<time>2026-01-01T00:03:17.000Z</time>
</wpt>
<wpt lat="34.8034514" lon="135.7800975">
<time>2026-01-01T00:03:18.000Z</time>
</wpt>
<wpt lat="34.8033384" lon="135.7801964">
<time>2026-01-01T00:03:19.000Z</time>
</wpt>
<wpt lat="34.8032254" lon="135.7802953">
<time>2026-01-01T00:03:20.000Z</time>
</wpt>
<wpt lat="34.8031124" lon="135.7803942">
<time>2026-01-01T00:03:21.000Z</time>
</wpt>
<wpt lat="34.8029994" lon="135.7804932">
<time>2026-01-01T00:03:22.000Z</time>
</wpt>
<wpt lat="34.8028865" lon="135.7805921">
<time>2026-01-01T00:03:23.000Z</time>
</wpt>
<wpt lat="34.8027735" lon="135.7806910">
<time>2026-01-01T00:03:24.000Z</time>
</wpt>
<wpt lat="34.8026605" lon="135.7807899">
<time>2026-01-01T00:03:25.000Z</time>
</wpt>
<wpt lat="34.8025475" lon="135.7808889">
<time>2026-01-01T00:03:26.000Z</time>
</wpt>
<wpt lat="34.8024345" lon="135.7809878">
<time>2026-01-01T00:03:27.000Z</time>
</wpt>
<wpt lat="34.8023215" lon="135.7810867">
<time>2026-01-01T00:03:28.000Z</time>
</wpt>
<wpt lat="34.8022085" lon="135.7811856">
<time>2026-01-01T00:03:29.000Z</time>
</wpt>
<wpt lat="34.8020955" lon="135.7812846">
<time>2026-01-01T00:03:30.000Z</time>
</wpt>
<wpt lat="34.8019826" lon="135.7813835">
<time>2026-01-01T00:03:31.000Z</time>
</wpt>
<wpt lat="34.8018696" lon="135.7814824">
<time>2026-01-01T00:03:32.000Z</time>
</wpt>
<wpt lat="34.8017566" lon="135.7815814">
<time>2026-01-01T00:03:33.000Z</time>
</wpt>
<wpt lat="34.8016436" lon="135.7816803">
<time>2026-01-01T00:03:34.000Z</time>
</wpt>
<wpt lat="34.8015306" lon="135.7817792">
<time>2026-01-01T00:03:35.000Z</time>
</wpt>
<wpt lat="34.8014176" lon="135.7818781">
<time>2026-01-01T00:03:36.000Z</time>
</wpt>
<wpt lat="34.8013046" lon="135.7819771">
<time>2026-01-01T00:03:37.000Z</time>
</wpt>
<wpt lat="34.8011916" lon="135.7820760">
<time>2026-01-01T00:03:38.000Z</time>
</wpt>
<wpt lat="34.8010786" lon="135.7821749">
<time>2026-01-01T00:03:39.000Z</time>
</wpt>
<wpt lat="34.8009657" lon="135.7822738">
<time>2026-01-01T00:03:40.000Z</time>
</wpt>
<wpt lat="34.8008527" lon="135.7823728">
<time>2026-01-01T00:03:41.000Z</time>
</wpt>
<wpt lat="34.8007397" lon="135.7824717">
<time>2026-01-01T00:03:42.000Z</time>
</wpt>
<wpt lat="34.8006267" lon="135.7825706">
<time>2026-01-01T00:03:43.000Z</time>
</wpt>
<wpt lat="34.8005137" lon="135.7826695">
<time>2026-01-01T00:03:44.000Z</time>
</wpt>
<wpt lat="34.8004007" lon="135.7827685">
<time>2026-01-01T00:03:45.000Z</time>
</wpt>
<wpt lat="34.8002877" lon="135.7828674">
<time>2026-01-01T00:03:46.000Z</time>
</wpt>
<wpt lat="34.8001747" lon="135.7829663">
<time>2026-01-01T00:03:47.000Z</time>
</wpt>
<wpt lat="34.8000618" lon="135.7830653">
<time>2026-01-01T00:03:48.000Z</time>
</wpt>
<wpt lat="34.7999488" lon="135.7831642">
<time>2026-01-01T00:03:49.000Z</time>
</wpt>
<wpt lat="34.7998358" lon="135.7832631">
<time>2026-01-01T00:03:50.000Z</time>
</wpt>
<wpt lat="34.7997228" lon="135.7833620">
<time>2026-01-01T00:03:51.000Z</time>
</wpt>
<wpt lat="34.7996098" lon="135.7834610">
<time>2026-01-01T00:03:52.000Z</time>
</wpt>
<wpt lat="34.7994968" lon="135.7835599">
<time>2026-01-01T00:03:53.000Z</time>
</wpt>
<wpt lat="34.7993838" lon="135.7836588">
<time>2026-01-01T00:03:54.000Z</time>
</wpt>
<wpt lat="34.7992714" lon="135.7837572">
<time>2026-01-01T00:03:55.000Z</time>
</wpt>
<wpt lat="34.7991644" lon="135.7838510">
<time>2026-01-01T00:03:56.000Z</time>
</wpt>
<wpt lat="34.7990638" lon="135.7839390">
<time>2026-01-01T00:03:57.000Z</time>
</wpt>
<wpt lat="34.7989698" lon="135.7840214">
<time>2026-01-01T00:03:58.000Z</time>
</wpt>
<wpt lat="34.7988822" lon="135.7840980">
<time>2026-01-01T00:03:59.000Z</time>
</wpt>
<wpt lat="34.7988011" lon="135.7841690">
<time>2026-01-01T00:04:00.000Z</time>
</wpt>
<wpt lat="34.7987265" lon="135.7842344">
<time>2026-01-01T00:04:01.000Z</time>
</wpt>
<wpt lat="34.7986584" lon="135.7842940">
<time>2026-01-01T00:04:02.000Z</time>
</wpt>
<wpt lat="34.7985967" lon="135.7843480">
<time>2026-01-01T00:04:03.000Z</time>
</wpt>
<wpt lat="34.7985416" lon="135.7843962">
<time>2026-01-01T00:04:04.000Z</time>
</wpt>
<wpt lat="34.7984929" lon="135.7844388">
<time>2026-01-01T00:04:05.000Z</time>
</wpt>
<wpt lat="34.7984508" lon="135.7844758">
<time>2026-01-01T00:04:06.000Z</time>
</wpt>
<wpt lat="34.7984151" lon="135.7845070">
<time>2026-01-01T00:04:07.000Z</time>
</wpt>
<wpt lat="34.7983859" lon="135.7845326">
<time>2026-01-01T00:04:08.000Z</time>
</wpt>
<wpt lat="34.7983632" lon="135.7845524">
<time>2026-01-01T00:04:09.000Z</time>
</wpt>
<wpt lat="34.7983470" lon="135.7845666">
<time>2026-01-01T00:04:10.000Z</time>
</wpt>
<wpt lat="34.7983372" lon="135.7845752">
<time>2026-01-01T00:04:11.000Z</time>
</wpt>
<wpt lat="34.7983340" lon="135.7845780">
<time>2026-01-01T00:04:12.000Z</time>
</wpt>
<wpt lat="34.7983340" lon="135.7845780">
<time>2026-01-01T00:04:13.000Z</time>
</wpt>
<wpt lat="34.7983340" lon="135.7845780">
<time>2026-01-01T00:04:14.000Z</time>
</wpt>
<wpt lat="34.7983340" lon="135.7845780">
<time>2026-01-01T00:04:15.000Z</time>
</wpt>
<wpt lat="34.7983340" lon="135.7845780">
<time>2026-01-01T00:04:16.000Z</time>
</wpt>
<wpt lat="34.7983340" lon="135.7845780">
<time>2026-01-01T00:04:17.000Z</time>
</wpt>
<wpt lat="34.7983340" lon="135.7845780">
<time>2026-01-01T00:04:18.000Z</time>
</wpt>
<wpt lat="34.7983340" lon="135.7845780">
<time>2026-01-01T00:04:19.000Z</time>
</wpt>
<wpt lat="34.7983340" lon="135.7845780">
<time>2026-01-01T00:04:20.000Z</time>
</wpt>
<wpt lat="34.7983340" lon="135.7845780">
<time>2026-01-01T00:04:21.000Z</time>
</wpt>
<wpt lat="34.7983340" lon="135.7845780">
<time>2026-01-01T00:04:22.000Z</time>
</wpt>
<wpt lat="34.7983340" lon="135.7845780">
<time>2026-01-01T00:04:23.000Z</time>
</wpt>
<wpt lat="34.7983340" lon="135.7845780">
<time>2026-01-01T00:04:24.000Z</time>
</wpt>
<wpt lat="34.7983340" lon="135.7845780">
<time>2026-01-01T00:04:25.000Z</time>
</wpt>
<wpt lat="34.7983340" lon="135.7845780">
<time>2026-01-01T00:04:26.000Z</time>
</wpt>
<wpt lat="34.7983340" lon="135.7845780">
<time>2026-01-01T00:04:27.000Z</time>
</wpt>
<wpt lat="34.7983340" lon="135.7845780">
<time>2026-01-01T00:04:28.000Z</time>
</wpt>
<wpt lat="34.7983340" lon="135.7845780">
<time>2026-01-01T00:04:29.000Z</time>
</wpt>
<wpt lat="34.7983340" lon="135.7845780">
<time>2026-01-01T00:04:30.000Z</time>
</wpt>
<wpt lat="34.7983340" lon="135.7845780">
<time>2026-01-01T00:04:31.000Z</time>
</wpt>
<wpt lat="34.7983340" lon="135.7845780">
<time>2026-01-01T00:04:32.000Z</time>
</wpt>
<wpt lat="34.7983340" lon="135.7845780">
<time>2026-01-01T00:04:33.000Z</time>
</wpt>
<wpt lat="34.7983340" lon="135.7845780">
<time>2026-01-01T00:04:34.000Z</time>
</wpt>
<wpt lat="34.7983340" lon="135.7845780">
<time>2026-01-01T00:04:35.000Z</time>
</wpt>
<wpt lat="34.7983340" lon="135.7845780">
<time>2026-01-01T00:04:36.000Z</time>
</wpt>
<wpt lat="34.7983340" lon="135.7845780">
<time>2026-01-01T00:04:37.000Z</time>
</wpt>
<wpt lat="34.7983340" lon="135.7845780">
<time>2026-01-01T00:04:38.000Z</time>
</wpt>
<wpt lat="34.7983340" lon="135.7845780">
<time>2026-01-01T00:04:39.000Z</time>
</wpt>
<wpt lat="34.7983340" lon="135.7845780">
<time>2026-01-01T00:04:40.000Z</time>
</wpt>
<wpt lat="34.7983340" lon="135.7845780">
<time>2026-01-01T00:04:41.000Z</time>
</wpt>
<wpt lat="34.7983340" lon="135.7845780">
<time>2026-01-01T00:04:42.000Z</time>
</wpt>
<wpt lat="34.7983340" lon="135.7845780">
<time>2026-01-01T00:04:43.000Z</time>
</wpt>
<wpt lat="34.7983340" lon="135.7845780">
<time>2026-01-01T00:04:44.000Z</time>
</wpt>
<wpt lat="34.7983340" lon="135.7845780">
<time>2026-01-01T00:04:45.000Z</time>
</wpt>
<wpt lat="34.7983340" lon="135.7845780">
<time>2026-01-01T00:04:46.000Z</time>
</wpt>
<wpt lat="34.7983340" lon="135.7845780">
<time>2026-01-01T00:04:47.000Z</time>
</wpt>
<wpt lat="34.7983340" lon="135.7845780">
<time>2026-01-01T00:04:48.000Z</time>
</wpt>
<wpt lat="34.7983340" lon="135.7845780">
<time>2026-01-01T00:04:49.000Z</time>
</wpt>
<wpt lat="34.7983309" lon="135.7845787">
<time>2026-01-01T00:04:50.000Z</time>
</wpt>
<wpt lat="34.7983217" lon="135.7845808">
<time>2026-01-01T00:04:51.000Z</time>
</wpt>
<wpt lat="34.7983062" lon="135.7845843">
<time>2026-01-01T00:04:52.000Z</time>
</wpt>
<wpt lat="34.7982846" lon="135.7845891">
<time>2026-01-01T00:04:53.000Z</time>
</wpt>
<wpt lat="34.7982568" lon="135.7845954">
<time>2026-01-01T00:04:54.000Z</time>
</wpt>
<wpt lat="34.7982229" lon="135.7846030">
<time>2026-01-01T00:04:55.000Z</time>
</wpt>
<wpt lat="34.7981827" lon="135.7846120">
<time>2026-01-01T00:04:56.000Z</time>
</wpt>
<wpt lat="34.7981364" lon="135.7846225">
<time>2026-01-01T00:04:57.000Z</time>
</wpt>
<wpt lat="34.7980839" lon="135.7846343">
<time>2026-01-01T00:04:58.000Z</time>
</wpt>
<wpt lat="34.7980253" lon="135.7846475">
<time>2026-01-01T00:04:59.000Z</time>
</wpt>
<wpt lat="34.7979605" lon="135.7846621">
<time>2026-01-01T00:05:00.000Z</time>
</wpt>
<wpt lat="34.7978895" lon="135.7846780">
<time>2026-01-01T00:05:01.000Z</time>
</wpt>
<wpt lat="34.7978123" lon="135.7846954">
<time>2026-01-01T00:05:02.000Z</time>
</wpt>
<wpt lat="34.7977289" lon="135.7847142">
<time>2026-01-01T00:05:03.000Z</time>
</wpt>
<wpt lat="34.7976394" lon="135.7847343">
<time>2026-01-01T00:05:04.000Z</time>
</wpt>
<wpt lat="34.7975437" lon="135.7847559">
<time>2026-01-01T00:05:05.000Z</time>
</wpt>
<wpt lat="34.7974418" lon="135.7847788">
<time>2026-01-01T00:05:06.000Z</time>
</wpt>
<wpt lat="34.7973338" lon="135.7848031">
<time>2026-01-01T00:05:07.000Z</time>
</wpt>
<wpt lat="34.7972196" lon="135.7848288">
<time>2026-01-01T00:05:08.000Z</time>
</wpt>
<wpt lat="34.7970992" lon="135.7848559">
<time>2026-01-01T00:05:09.000Z</time>
</wpt>
<wpt lat="34.7969726" lon="135.7848844">
<time>2026-01-01T00:05:10.000Z</time>
</wpt>
<wpt lat="34.7968399" lon="135.7849143">
<time>2026-01-01T00:05:11.000Z</time>
</wpt>
<wpt lat="34.7967009" lon="135.7849455">
<time>2026-01-01T00:05:12.000Z</time>
</wpt>
<wpt lat="34.7965559" lon="135.7849782">
<time>2026-01-01T00:05:13.000Z</time>
</wpt>
<wpt lat="34.7964046" lon="135.7850122">
<time>2026-01-01T00:05:14.000Z</time>
</wpt>
<wpt lat="34.7962485" lon="135.7850474">
<time>2026-01-01T00:05:15.000Z</time>
</wpt>
<wpt lat="34.7960920" lon="135.7850826">
<time>2026-01-01T00:05:16.000Z</time>
</wpt>
<wpt lat="34.7959355" lon="135.7851178">
<time>2026-01-01T00:05:17.000Z</time>
</wpt>
<wpt lat="34.7957791" lon="135.7851530">
<time>2026-01-01T00:05:18.000Z</time>
</wpt>
<wpt lat="34.7956226" lon="135.7851882">
<time>2026-01-01T00:05:19.000Z</time>
</wpt>
<wpt lat="34.7954661" lon="135.7852235">
<time>2026-01-01T00:05:20.000Z</time>
</wpt>
<wpt lat="34.7953097" lon="135.7852587">
<time>2026-01-01T00:05:21.000Z</time>
</wpt>
<wpt lat="34.7951532" lon="135.7852939">
<time>2026-01-01T00:05:22.000Z</time>
</wpt>
<wpt lat="34.7949967" lon="135.7853291">
<time>2026-01-01T00:05:23.000Z</time>
</wpt>
<wpt lat="34.7948403" lon="135.7853643">
<time>2026-01-01T00:05:24.000Z</time>
</wpt>
<wpt lat="34.7946838" lon="135.7853995">
<time>2026-01-01T00:05:25.000Z</time>
</wpt>
<wpt lat="34.7945273" lon="135.7854347">
<time>2026-01-01T00:05:26.000Z</time>
</wpt>
<wpt lat="34.7943709" lon="135.7854700">
<time>2026-01-01T00:05:27.000Z</time>
</wpt>
<wpt lat="34.7942144" lon="135.7855052">
<time>2026-01-01T00:05:28.000Z</time>
</wpt>
<wpt lat="34.7940579" lon="135.7855404">
<time>2026-01-01T00:05:29.000Z</time>
</wpt>
<wpt lat="34.7939015" lon="135.7855756">
<time>2026-01-01T00:05:30.000Z</time>
</wpt>
<wpt lat="34.7937450" lon="135.7856108">
<time>2026-01-01T00:05:31.000Z</time>
</wpt>
<wpt lat="34.7935885" lon="135.7856460">
<time>2026-01-01T00:05:32.000Z</time>
</wpt>
<wpt lat="34.7934320" lon="135.7856813">
<time>2026-01-01T00:05:33.000Z</time>
</wpt>
<wpt lat="34.7932756" lon="135.7857165">
<time>2026-01-01T00:05:34.000Z</time>
</wpt>
<wpt lat="34.7931191" lon="135.7857517">
<time>2026-01-01T00:05:35.000Z</time>
</wpt>
<wpt lat="34.7929626" lon="135.7857869">
<time>2026-01-01T00:05:36.000Z</time>
</wpt>
<wpt lat="34.7928062" lon="135.7858221">
<time>2026-01-01T00:05:37.000Z</time>
</wpt>
<wpt lat="34.7926497" lon="135.7858573">
<time>2026-01-01T00:05:38.000Z</time>
</wpt>
<wpt lat="34.7924932" lon="135.7858925">
<time>2026-01-01T00:05:39.000Z</time>
</wpt>
<wpt lat="34.7923368" lon="135.7859278">
<time>2026-01-01T00:05:40.000Z</time>
</wpt>
<wpt lat="34.7921803" lon="135.7859630">
<time>2026-01-01T00:05:41.000Z</time>
</wpt>
<wpt lat="34.7920238" lon="135.7859982">
<time>2026-01-01T00:05:42.000Z</time>
</wpt>
<wpt lat="34.7918674" lon="135.7860334">
<time>2026-01-01T00:05:43.000Z</time>
</wpt>
<wpt lat="34.7917109" lon="135.7860686">
<time>2026-01-01T00:05:44.000Z</time>
</wpt>
<wpt lat="34.7915544" lon="135.7861038">
<time>2026-01-01T00:05:45.000Z</time>
</wpt>
<wpt lat="34.7913980" lon="135.7861391">
<time>2026-01-01T00:05:46.000Z</time>
</wpt>
<wpt lat="34.7912415" lon="135.7861743">
<time>2026-01-01T00:05:47.000Z</time>
</wpt>
<wpt lat="34.7910850" lon="135.7862095">
<time>2026-01-01T00:05:48.000Z</time>
</wpt>
<wpt lat="34.7909285" lon="135.7862447">
<time>2026-01-01T00:05:49.000Z</time>
</wpt>
<wpt lat="34.7907721" lon="135.7862799">
<time>2026-01-01T00:05:50.000Z</time>
</wpt>
<wpt lat="34.7906156" lon="135.7863151">
<time>2026-01-01T00:05:51.000Z</time>
</wpt>
<wpt lat="34.7904591" lon="135.7863503">
<time>2026-01-01T00:05:52.000Z</time>
</wpt>
<wpt lat="34.7903027" lon="135.7863856">
<time>2026-01-01T00:05:53.000Z</time>
</wpt>
<wpt lat="34.7901462" lon="135.7864208">
<time>2026-01-01T00:05:54.000Z</time>
</wpt>
<wpt lat="34.7899897" lon="135.7864560">
<time>2026-01-01T00:05:55.000Z</time>
</wpt>
<wpt lat="34.7898333" lon="135.7864912">
<time>2026-01-01T00:05:56.000Z</time>
</wpt>
<wpt lat="34.7896768" lon="135.7865264">
<time>2026-01-01T00:05:57.000Z</time>
</wpt>
<wpt lat="34.7895203" lon="135.7865616">
<time>2026-01-01T00:05:58.000Z</time>
</wpt>
<wpt lat="34.7893639" lon="135.7865969">
<time>2026-01-01T00:05:59.000Z</time>
</wpt>
<wpt lat="34.7892074" lon="135.7866321">
<time>2026-01-01T00:06:00.000Z</time>
</wpt>
<wpt lat="34.7890509" lon="135.7866673">
<time>2026-01-01T00:06:01.000Z</time>
</wpt>
<wpt lat="34.7888945" lon="135.7867025">
<time>2026-01-01T00:06:02.000Z</time>
</wpt>
<wpt lat="34.7887380" lon="135.7867377">
<time>2026-01-01T00:06:03.000Z</time>
</wpt>
<wpt lat="34.7885815" lon="135.7867729">
<time>2026-01-01T00:06:04.000Z</time>
</wpt>
<wpt lat="34.7884250" lon="135.7868081">
<time>2026-01-01T00:06:05.000Z</time>
</wpt>
<wpt lat="34.7882686" lon="135.7868434">
<time>2026-01-01T00:06:06.000Z</time>
</wpt>
<wpt lat="34.7881121" lon="135.7868786">
<time>2026-01-01T00:06:07.000Z</time>
</wpt>
<wpt lat="34.7879556" lon="135.7869138">
<time>2026-01-01T00:06:08.000Z</time>
</wpt>
<wpt lat="34.7877992" lon="135.7869490">
<time>2026-01-01T00:06:09.000Z</time>
</wpt>
<wpt lat="34.7876427" lon="135.7869842">
<time>2026-01-01T00:06:10.000Z</time>
</wpt>
<wpt lat="34.7874862" lon="135.7870194">
<time>2026-01-01T00:06:11.000Z</time>
</wpt>
<wpt lat="34.7873298" lon="135.7870546">
<time>2026-01-01T00:06:12.000Z</time>
</wpt>
<wpt lat="34.7871733" lon="135.7870899">
<time>2026-01-01T00:06:13.000Z</time>
</wpt>
<wpt lat="34.7870168" lon="135.7871251">
<time>2026-01-01T00:06:14.000Z</time>
</wpt>
<wpt lat="34.7868604" lon="135.7871603">
<time>2026-01-01T00:06:15.000Z</time>
</wpt>
<wpt lat="34.7867039" lon="135.7871955">
<time>2026-01-01T00:06:16.000Z</time>
</wpt>
<wpt lat="34.7865474" lon="135.7872307">
<time>2026-01-01T00:06:17.000Z</time>
</wpt>
<wpt lat="34.7863910" lon="135.7872659">
<time>2026-01-01T00:06:18.000Z</time>
</wpt>
<wpt lat="34.7862345" lon="135.7873012">
<time>2026-01-01T00:06:19.000Z</time>
</wpt>
<wpt lat="34.7860780" lon="135.7873364">
<time>2026-01-01T00:06:20.000Z</time>
</wpt>
<wpt lat="34.7859215" lon="135.7873716">
<time>2026-01-01T00:06:21.000Z</time>
</wpt>
<wpt lat="34.7857651" lon="135.7874068">
<time>2026-01-01T00:06:22.000Z</time>
</wpt>
<wpt lat="34.7856086" lon="135.7874420">
<time>2026-01-01T00:06:23.000Z</time>
</wpt>
<wpt lat="34.7854521" lon="135.7874772">
<time>2026-01-01T00:06:24.000Z</time>
</wpt>
<wpt lat="34.7852957" lon="135.7875124">
<time>2026-01-01T00:06:25.000Z</time>
</wpt>
<wpt lat="34.7851392" lon="135.7875477">
<time>2026-01-01T00:06:26.000Z</time>
</wpt>
<wpt lat="34.7849827" lon="135.7875829">
<time>2026-01-01T00:06:27.000Z</time>
</wpt>
<wpt lat="34.7848263" lon="135.7876181">
<time>2026-01-01T00:06:28.000Z</time>
</wpt>
<wpt lat="34.7846698" lon="135.7876533">
<time>2026-01-01T00:06:29.000Z</time>
</wpt>
<wpt lat="34.7845133" lon="135.7876885">
<time>2026-01-01T00:06:30.000Z</time>
</wpt>
<wpt lat="34.7843569" lon="135.7877237">
<time>2026-01-01T00:06:31.000Z</time>
</wpt>
<wpt lat="34.7842004" lon="135.7877590">
<time>2026-01-01T00:06:32.000Z</time>
</wpt>
<wpt lat="34.7840439" lon="135.7877942">
<time>2026-01-01T00:06:33.000Z</time>
</wpt>
<wpt lat="34.7838875" lon="135.7878294">
<time>2026-01-01T00:06:34.000Z</time>
</wpt>
<wpt lat="34.7837310" lon="135.7878646">
<time>2026-01-01T00:06:35.000Z</time>
</wpt>
<wpt lat="34.7835745" lon="135.7878998">
<time>2026-01-01T00:06:36.000Z</time>
</wpt>
<wpt lat="34.7834180" lon="135.7879350">
<time>2026-01-01T00:06:37.000Z</time>
</wpt>
<wpt lat="34.7832616" lon="135.7879702">
<time>2026-01-01T00:06:38.000Z</time>
</wpt>
<wpt lat="34.7831051" lon="135.7880055">
<time>2026-01-01T00:06:39.000Z</time>
</wpt>
<wpt lat="34.7829486" lon="135.7880407">
<time>2026-01-01T00:06:40.000Z</time>
</wpt>
<wpt lat="34.7827922" lon="135.7880759">
<time>2026-01-01T00:06:41.000Z</time>
</wpt>
<wpt lat="34.7826357" lon="135.7881111">
<time>2026-01-01T00:06:42.000Z</time>
</wpt>
<wpt lat="34.7824792" lon="135.7881463">
<time>2026-01-01T00:06:43.000Z</time>
</wpt>
<wpt lat="34.7823228" lon="135.7881815">
<time>2026-01-01T00:06:44.000Z</time>
</wpt>
<wpt lat="34.7821663" lon="135.7882168">
<time>2026-01-01T00:06:45.000Z</time>
</wpt>
<wpt lat="34.7820118" lon="135.7882515">
<time>2026-01-01T00:06:46.000Z</time>
</wpt>
<wpt lat="34.7818650" lon="135.7882846">
<time>2026-01-01T00:06:47.000Z</time>
</wpt>
<wpt lat="34.7817261" lon="135.7883158">
<time>2026-01-01T00:06:48.000Z</time>
</wpt>
<wpt lat="34.7815951" lon="135.7883453">
<time>2026-01-01T00:06:49.000Z</time>
</wpt>
<wpt lat="34.7814720" lon="135.7883730">
<time>2026-01-01T00:06:50.000Z</time>
</wpt>
<wpt lat="34.7813569" lon="135.7883989">
<time>2026-01-01T00:06:51.000Z</time>
</wpt>
<wpt lat="34.7812498" lon="135.7884230">
<time>2026-01-01T00:06:52.000Z</time>
</wpt>
<wpt lat="34.7811505" lon="135.7884454">
<time>2026-01-01T00:06:53.000Z</time>
</wpt>
<wpt lat="34.7810593" lon="135.7884659">
<time>2026-01-01T00:06:54.000Z</time>
</wpt>
<wpt lat="34.7809759" lon="135.7884847">
<time>2026-01-01T00:06:55.000Z</time>
</wpt>
<wpt lat="34.7809005" lon="135.7885016">
<time>2026-01-01T00:06:56.000Z</time>
</wpt>
<wpt lat="34.7808330" lon="135.7885168">
<time>2026-01-01T00:06:57.000Z</time>
</wpt>
<wpt lat="34.7807735" lon="135.7885302">
<time>2026-01-01T00:06:58.000Z</time>
</wpt>
<wpt lat="34.7807219" lon="135.7885418">
<time>2026-01-01T00:06:59.000Z</time>
</wpt>
<wpt lat="34.7806782" lon="135.7885517">
<time>2026-01-01T00:07:00.000Z</time>
</wpt>
<wpt lat="34.7806425" lon="135.7885597">
<time>2026-01-01T00:07:01.000Z</time>
</wpt>
<wpt lat="34.7806147" lon="135.7885660">
<time>2026-01-01T00:07:02.000Z</time>
</wpt>
<wpt lat="34.7805949" lon="135.7885704">
<time>2026-01-01T00:07:03.000Z</time>
</wpt>
<wpt lat="34.7805830" lon="135.7885731">
<time>2026-01-01T00:07:04.000Z</time>
</wpt>
<wpt lat="34.7805790" lon="135.7885740">
<time>2026-01-01T00:07:05.000Z</time>
</wpt>
<wpt lat="34.7805790" lon="135.7885740">
<time>2026-01-01T00:07:06.000Z</time>
</wpt>
<wpt lat="34.7805790" lon="135.7885740">
<time>2026-01-01T00:07:07.000Z</time>
</wpt>
<wpt lat="34.7805790" lon="135.7885740">
<time>2026-01-01T00:07:08.000Z</time>
</wpt>
<wpt lat="34.7805790" lon="135.7885740">
<time>2026-01-01T00:07:09.000Z</time>
</wpt>
<wpt lat="34.7805790" lon="135.7885740">
<time>2026-01-01T00:07:10.000Z</time>
</wpt>
<wpt lat="34.7805790" lon="135.7885740">
<time>2026-01-01T00:07:11.000Z</time>
</wpt>
<wpt lat="34.7805790" lon="135.7885740">
<time>2026-01-01T00:07:12.000Z</time>
</wpt>
<wpt lat="34.7805790" lon="135.7885740">
<time>2026-01-01T00:07:13.000Z</time>
</wpt>
<wpt lat="34.7805790" lon="135.7885740">
<time>2026-01-01T00:07:14.000Z</time>
</wpt>
<wpt lat="34.7805790" lon="135.7885740">
<time>2026-01-01T00:07:15.000Z</time>
</wpt>
<wpt lat="34.7805790" lon="135.7885740">
<time>2026-01-01T00:07:16.000Z</time>
</wpt>
<wpt lat="34.7805790" lon="135.7885740">
<time>2026-01-01T00:07:17.000Z</time>
</wpt>
<wpt lat="34.7805790" lon="135.7885740">
<time>2026-01-01T00:07:18.000Z</time>
</wpt>
<wpt lat="34.7805790" lon="135.7885740">
<time>2026-01-01T00:07:19.000Z</time>
</wpt>
<wpt lat="34.7805790" lon="135.7885740">
<time>2026-01-01T00:07:20.000Z</time>
</wpt>
<wpt lat="34.7805790" lon="135.7885740">
<time>2026-01-01T00:07:21.000Z</time>
</wpt>
<wpt lat="34.7805790" lon="135.7885740">
<time>2026-01-01T00:07:22.000Z</time>
</wpt>
<wpt lat="34.7805790" lon="135.7885740">
<time>2026-01-01T00:07:23.000Z</time>
</wpt>
<wpt lat="34.7805790" lon="135.7885740">
<time>2026-01-01T00:07:24.000Z</time>
</wpt>
<wpt lat="34.7805790" lon="135.7885740">
<time>2026-01-01T00:07:25.000Z</time>
</wpt>
<wpt lat="34.7805790" lon="135.7885740">
<time>2026-01-01T00:07:26.000Z</time>
</wpt>
<wpt lat="34.7805790" lon="135.7885740">
<time>2026-01-01T00:07:27.000Z</time>
</wpt>
<wpt lat="34.7805790" lon="135.7885740">
<time>2026-01-01T00:07:28.000Z</time>
</wpt>
<wpt lat="34.7805790" lon="135.7885740">
<time>2026-01-01T00:07:29.000Z</time>
</wpt>
<wpt lat="34.7805790" lon="135.7885740">
<time>2026-01-01T00:07:30.000Z</time>
</wpt>
<wpt lat="34.7805790" lon="135.7885740">
<time>2026-01-01T00:07:31.000Z</time>
</wpt>
<wpt lat="34.7805790" lon="135.7885740">
<time>2026-01-01T00:07:32.000Z</time>
</wpt>
<wpt lat="34.7805790" lon="135.7885740">
<time>2026-01-01T00:07:33.000Z</time>
</wpt>
<wpt lat="34.7805790" lon="135.7885740">
<time>2026-01-01T00:07:34.000Z</time>
</wpt>
<wpt lat="34.7805790" lon="135.7885740">
<time>2026-01-01T00:07:35.000Z</time>
</wpt>
<wpt lat="34.7805790" lon="135.7885740">
<time>2026-01-01T00:07:36.000Z</time>
</wpt>
<wpt lat="34.7805790" lon="135.7885740">
<time>2026-01-01T00:07:37.000Z</time>
</wpt>
<wpt lat="34.7805790" lon="135.7885740">
<time>2026-01-01T00:07:38.000Z</time>
</wpt>
<wpt lat="34.7805790" lon="135.7885740">
<time>2026-01-01T00:07:39.000Z</time>
</wpt>
<wpt lat="34.7805790" lon="135.7885740">
<time>2026-01-01T00:07:40.000Z</time>
</wpt>
<wpt lat="34.7805790" lon="135.7885740">
<time>2026-01-01T00:07:41.000Z</time>
</wpt>
<wpt lat="34.7805790" lon="135.7885740">
<time>2026-01-01T00:07:42.000Z</time>
</wpt>
<wpt lat="34.7805759" lon="135.7885745">
<time>2026-01-01T00:07:43.000Z</time>
</wpt>
<wpt lat="34.7805666" lon="135.7885762">
<time>2026-01-01T00:07:44.000Z</time>
</wpt>
<wpt lat="34.7805510" lon="135.7885788">
<time>2026-01-01T00:07:45.000Z</time>
</wpt>
<wpt lat="34.7805293" lon="135.7885826">
<time>2026-01-01T00:07:46.000Z</time>
</wpt>
<wpt lat="34.7805013" lon="135.7885874">
<time>2026-01-01T00:07:47.000Z</time>
</wpt>
<wpt lat="34.7804671" lon="135.7885934">
<time>2026-01-01T00:07:48.000Z</time>
</wpt>
<wpt lat="34.7804268" lon="135.7886004">
<time>2026-01-01T00:07:49.000Z</time>
</wpt>
<wpt lat="34.7803801" lon="135.7886084">
<time>2026-01-01T00:07:50.000Z</time>
</wpt>
<wpt lat="34.7803273" lon="135.7886176">
<time>2026-01-01T00:07:51.000Z</time>
</wpt>
<wpt lat="34.7802683" lon="135.7886278">
<time>2026-01-01T00:07:52.000Z</time>
</wpt>
<wpt lat="34.7802030" lon="135.7886391">
<time>2026-01-01T00:07:53.000Z</time>
</wpt>
<wpt lat="34.7801316" lon="135.7886515">
<time>2026-01-01T00:07:54.000Z</time>
</wpt>
<wpt lat="34.7800539" lon="135.7886649">
<time>2026-01-01T00:07:55.000Z</time>
</wpt>
<wpt lat="34.7799700" lon="135.7886794">
<time>2026-01-01T00:07:56.000Z</time>
</wpt>
<wpt lat="34.7798799" lon="135.7886950">
<time>2026-01-01T00:07:57.000Z</time>
</wpt>
<wpt lat="34.7797836" lon="135.7887117">
<time>2026-01-01T00:07:58.000Z</time>
</wpt>
<wpt lat="34.7796811" lon="135.7887294">
<time>2026-01-01T00:07:59.000Z</time>
</wpt>
<wpt lat="34.7795723" lon="135.7887483">
<time>2026-01-01T00:08:00.000Z</time>
</wpt>
<wpt lat="34.7794573" lon="135.7887682">
<time>2026-01-01T00:08:01.000Z</time>
</wpt>
<wpt lat="34.7793362" lon="135.7887891">
<time>2026-01-01T00:08:02.000Z</time>
</wpt>
<wpt lat="34.7792088" lon="135.7888112">
<time>2026-01-01T00:08:03.000Z</time>
</wpt>
<wpt lat="34.7790752" lon="135.7888343">
<time>2026-01-01T00:08:04.000Z</time>
</wpt>
<wpt lat="34.7789354" lon="135.7888585">
<time>2026-01-01T00:08:05.000Z</time>
</wpt>
<wpt lat="34.7787893" lon="135.7888838">
<time>2026-01-01T00:08:06.000Z</time>
</wpt>
<wpt lat="34.7786371" lon="135.7889102">
<time>2026-01-01T00:08:07.000Z</time>
</wpt>
<wpt lat="34.7784787" lon="135.7889376">
<time>2026-01-01T00:08:08.000Z</time>
</wpt>
<wpt lat="34.7783180" lon="135.7889654">
<time>2026-01-01T00:08:09.000Z</time>
</wpt>
<wpt lat="34.7781573" lon="135.7889932">
<time>2026-01-01T00:08:10.000Z</time>
</wpt>
<wpt lat="34.7779966" lon="135.7890210">
<time>2026-01-01T00:08:11.000Z</time>
</wpt>
<wpt lat="34.7778360" lon="135.7890488">
<time>2026-01-01T00:08:12.000Z</time>
</wpt>
<wpt lat="34.7776753" lon="135.7890767">
<time>2026-01-01T00:08:13.000Z</time>
</wpt>
<wpt lat="34.7775146" lon="135.7891045">
<time>2026-01-01T00:08:14.000Z</time>
</wpt>
<wpt lat="34.7773539" lon="135.7891323">
<time>2026-01-01T00:08:15.000Z</time>
</wpt>
<wpt lat="34.7771932" lon="135.7891601">
<time>2026-01-01T00:08:16.000Z</time>
</wpt>
<wpt lat="34.7770326" lon="135.7891879">
<time>2026-01-01T00:08:17.000Z</time>
</wpt>
<wpt lat="34.7768719" lon="135.7892157">
<time>2026-01-01T00:08:18.000Z</time>
</wpt>
<wpt lat="34.7767112" lon="135.7892436">
<time>2026-01-01T00:08:19.000Z</time>
</wpt>
<wpt lat="34.7765505" lon="135.7892714">
<time>2026-01-01T00:08:20.000Z</time>
</wpt>
<wpt lat="34.7763898" lon="135.7892992">
<time>2026-01-01T00:08:21.000Z</time>
</wpt>
<wpt lat="34.7762292" lon="135.7893270">
<time>2026-01-01T00:08:22.000Z</time>
</wpt>
<wpt lat="34.7760685" lon="135.7893548">
<time>2026-01-01T00:08:23.000Z</time>
</wpt>
<wpt lat="34.7759078" lon="135.7893826">
<time>2026-01-01T00:08:24.000Z</time>
</wpt>
<wpt lat="34.7757471" lon="135.7894104">
<time>2026-01-01T00:08:25.000Z</time>
</wpt>
<wpt lat="34.7755864" lon="135.7894383">
<time>2026-01-01T00:08:26.000Z</time>
</wpt>
<wpt lat="34.7754257" lon="135.7894661">
<time>2026-01-01T00:08:27.000Z</time>
</wpt>
<wpt lat="34.7752651" lon="135.7894939">
<time>2026-01-01T00:08:28.000Z</time>
</wpt>
<wpt lat="34.7751044" lon="135.7895217">
<time>2026-01-01T00:08:29.000Z</time>
</wpt>
<wpt lat="34.7749437" lon="135.7895495">
<time>2026-01-01T00:08:30.000Z</time>
</wpt>
<wpt lat="34.7747830" lon="135.7895773">
<time>2026-01-01T00:08:31.000Z</time>
</wpt>
<wpt lat="34.7746223" lon="135.7896052">
<time>2026-01-01T00:08:32.000Z</time>
</wpt>
<wpt lat="34.7744617" lon="135.7896330">
<time>2026-01-01T00:08:33.000Z</time>
</wpt>
<wpt lat="34.7743010" lon="135.7896608">
<time>2026-01-01T00:08:34.000Z</time>
</wpt>
<wpt lat="34.7741403" lon="135.7896886">
<time>2026-01-01T00:08:35.000Z</time>
</wpt>
<wpt lat="34.7739796" lon="135.7897164">
<time>2026-01-01T00:08:36.000Z</time>
</wpt>
<wpt lat="34.7738189" lon="135.7897442">
<time>2026-01-01T00:08:37.000Z</time>
</wpt>
<wpt lat="34.7736583" lon="135.7897720">
<time>2026-01-01T00:08:38.000Z</time>
</wpt>
<wpt lat="34.7734976" lon="135.7897999">
<time>2026-01-01T00:08:39.000Z</time>
</wpt>
<wpt lat="34.7733369" lon="135.7898277">
<time>2026-01-01T00:08:40.000Z</time>
</wpt>
<wpt lat="34.7731762" lon="135.7898555">
<time>2026-01-01T00:08:41.000Z</time>
</wpt>
<wpt lat="34.7730155" lon="135.7898833">
<time>2026-01-01T00:08:42.000Z</time>
</wpt>
<wpt lat="34.7728549" lon="135.7899111">
<time>2026-01-01T00:08:43.000Z</time>
</wpt>
<wpt lat="34.7726942" lon="135.7899389">
<time>2026-01-01T00:08:44.000Z</time>
</wpt>
<wpt lat="34.7725335" lon="135.7899668">
<time>2026-01-01T00:08:45.000Z</time>
</wpt>
<wpt lat="34.7723728" lon="135.7899946">
<time>2026-01-01T00:08:46.000Z</time>
</wpt>
<wpt lat="34.7722121" lon="135.7900224">
<time>2026-01-01T00:08:47.000Z</time>
</wpt>
<wpt lat="34.7720514" lon="135.7900502">
<time>2026-01-01T00:08:48.000Z</time>
</wpt>
<wpt lat="34.7718908" lon="135.7900780">
<time>2026-01-01T00:08:49.000Z</time>
</wpt>
<wpt lat="34.7717301" lon="135.7901058">
<time>2026-01-01T00:08:50.000Z</time>
</wpt>
<wpt lat="34.7715694" lon="135.7901336">
<time>2026-01-01T00:08:51.000Z</time>
</wpt>
<wpt lat="34.7714087" lon="135.7901615">
<time>2026-01-01T00:08:52.000Z</time>
</wpt>
<wpt lat="34.7712480" lon="135.7901893">
<time>2026-01-01T00:08:53.000Z</time>
</wpt>
<wpt lat="34.7710874" lon="135.7902171">
<time>2026-01-01T00:08:54.000Z</time>
</wpt>
<wpt lat="34.7709267" lon="135.7902449">
<time>2026-01-01T00:08:55.000Z</time>
</wpt>
<wpt lat="34.7707660" lon="135.7902727">
<time>2026-01-01T00:08:56.000Z</time>
</wpt>
<wpt lat="34.7706053" lon="135.7903005">
<time>2026-01-01T00:08:57.000Z</time>
</wpt>
<wpt lat="34.7704446" lon="135.7903284">
<time>2026-01-01T00:08:58.000Z</time>
</wpt>
<wpt lat="34.7702840" lon="135.7903562">
<time>2026-01-01T00:08:59.000Z</time>
</wpt>
<wpt lat="34.7701233" lon="135.7903840">
<time>2026-01-01T00:09:00.000Z</time>
</wpt>
<wpt lat="34.7699626" lon="135.7904118">
<time>2026-01-01T00:09:01.000Z</time>
</wpt>
<wpt lat="34.7698019" lon="135.7904396">
<time>2026-01-01T00:09:02.000Z</time>
</wpt>
<wpt lat="34.7696412" lon="135.7904674">
<time>2026-01-01T00:09:03.000Z</time>
</wpt>
<wpt lat="34.7694806" lon="135.7904953">
<time>2026-01-01T00:09:04.000Z</time>
</wpt>
<wpt lat="34.7693199" lon="135.7905231">
<time>2026-01-01T00:09:05.000Z</time>
</wpt>
<wpt lat="34.7691592" lon="135.7905509">
<time>2026-01-01T00:09:06.000Z</time>
</wpt>
<wpt lat="34.7689985" lon="135.7905787">
<time>2026-01-01T00:09:07.000Z</time>
</wpt>
<wpt lat="34.7688378" lon="135.7906065">
<time>2026-01-01T00:09:08.000Z</time>
</wpt>
<wpt lat="34.7686772" lon="135.7906343">
<time>2026-01-01T00:09:09.000Z</time>
</wpt>
<wpt lat="34.7685165" lon="135.7906621">
<time>2026-01-01T00:09:10.000Z</time>
</wpt>
<wpt lat="34.7683558" lon="135.7906900">
<time>2026-01-01T00:09:11.000Z</time>
</wpt>
<wpt lat="34.7681951" lon="135.7907178">
<time>2026-01-01T00:09:12.000Z</time>
</wpt>
<wpt lat="34.7680344" lon="135.7907456">
<time>2026-01-01T00:09:13.000Z</time>
</wpt>
<wpt lat="34.7678737" lon="135.7907734">
<time>2026-01-01T00:09:14.000Z</time>
</wpt>
<wpt lat="34.7677131" lon="135.7908012">
<time>2026-01-01T00:09:15.000Z</time>
</wpt>
<wpt lat="34.7675524" lon="135.7908290">
<time>2026-01-01T00:09:16.000Z</time>
</wpt>
<wpt lat="34.7673917" lon="135.7908569">
<time>2026-01-01T00:09:17.000Z</time>
</wpt>
<wpt lat="34.7672310" lon="135.7908847">
<time>2026-01-01T00:09:18.000Z</time>
</wpt>
<wpt lat="34.7670703" lon="135.7909125">
<time>2026-01-01T00:09:19.000Z</time>
</wpt>
<wpt lat="34.7669097" lon="135.7909403">
<time>2026-01-01T00:09:20.000Z</time>
</wpt>
<wpt lat="34.7667490" lon="135.7909681">
<time>2026-01-01T00:09:21.000Z</time>
</wpt>
<wpt lat="34.7665883" lon="135.7909959">
<time>2026-01-01T00:09:22.000Z</time>
</wpt>
<wpt lat="34.7664276" lon="135.7910237">
<time>2026-01-01T00:09:23.000Z</time>
</wpt>
<wpt lat="34.7662669" lon="135.7910516">
<time>2026-01-01T00:09:24.000Z</time>
</wpt>
<wpt lat="34.7661063" lon="135.7910794">
<time>2026-01-01T00:09:25.000Z</time>
</wpt>
<wpt lat="34.7659456" lon="135.7911072">
<time>2026-01-01T00:09:26.000Z</time>
</wpt>
<wpt lat="34.7657849" lon="135.7911350">
<time>2026-01-01T00:09:27.000Z</time>
</wpt>
<wpt lat="34.7656242" lon="135.7911628">
<time>2026-01-01T00:09:28.000Z</time>
</wpt>
<wpt lat="34.7654635" lon="135.7911906">
<time>2026-01-01T00:09:29.000Z</time>
</wpt>
<wpt lat="34.7653029" lon="135.7912185">
<time>2026-01-01T00:09:30.000Z</time>
</wpt>
<wpt lat="34.7651422" lon="135.7912463">
<time>2026-01-01T00:09:31.000Z</time>
</wpt>
<wpt lat="34.7649815" lon="135.7912741">
<time>2026-01-01T00:09:32.000Z</time>
</wpt>
<wpt lat="34.7648208" lon="135.7913019">
<time>2026-01-01T00:09:33.000Z</time>
</wpt>
<wpt lat="34.7646601" lon="135.7913297">
<time>2026-01-01T00:09:34.000Z</time>
</wpt>
<wpt lat="34.7644994" lon="135.7913575">
<time>2026-01-01T00:09:35.000Z</time>
</wpt>
<wpt lat="34.7643388" lon="135.7913853">
<time>2026-01-01T00:09:36.000Z</time>
</wpt>
<wpt lat="34.7641781" lon="135.7914132">
<time>2026-01-01T00:09:37.000Z</time>
</wpt>
<wpt lat="34.7640174" lon="135.7914410">
<time>2026-01-01T00:09:38.000Z</time>
</wpt>
<wpt lat="34.7638567" lon="135.7914688">
<time>2026-01-01T00:09:39.000Z</time>
</wpt>
<wpt lat="34.7636960" lon="135.7914966">
<time>2026-01-01T00:09:40.000Z</time>
</wpt>
<wpt lat="34.7635354" lon="135.7915244">
<time>2026-01-01T00:09:41.000Z</time>
</wpt>
<wpt lat="34.7633747" lon="135.7915522">
<time>2026-01-01T00:09:42.000Z</time>
</wpt>
<wpt lat="34.7632140" lon="135.7915801">
<time>2026-01-01T00:09:43.000Z</time>
</wpt>
<wpt lat="34.7630533" lon="135.7916079">
<time>2026-01-01T00:09:44.000Z</time>
</wpt>
<wpt lat="34.7628926" lon="135.7916357">
<time>2026-01-01T00:09:45.000Z</time>
</wpt>
<wpt lat="34.7627320" lon="135.7916635">
<time>2026-01-01T00:09:46.000Z</time>
</wpt>
<wpt lat="34.7625713" lon="135.7916913">
<time>2026-01-01T00:09:47.000Z</time>
</wpt>
<wpt lat="34.7624106" lon="135.7917191">
<time>2026-01-01T00:09:48.000Z</time>
</wpt>
<wpt lat="34.7622499" lon="135.7917469">
<time>2026-01-01T00:09:49.000Z</time>
</wpt>
<wpt lat="34.7620892" lon="135.7917748">
<time>2026-01-01T00:09:50.000Z</time>
</wpt>
<wpt lat="34.7619286" lon="135.7918026">
<time>2026-01-01T00:09:51.000Z</time>
</wpt>
<wpt lat="34.7617679" lon="135.7918304">
<time>2026-01-01T00:09:52.000Z</time>
</wpt>
<wpt lat="34.7616121" lon="135.7918574">
<time>2026-01-01T00:09:53.000Z</time>
</wpt>
<wpt lat="34.7614643" lon="135.7918829">
<time>2026-01-01T00:09:54.000Z</time>
</wpt>
<wpt lat="34.7613245" lon="135.7919071">
<time>2026-01-01T00:09:55.000Z</time>
</wpt>
<wpt lat="34.7611927" lon="135.7919300">
<time>2026-01-01T00:09:56.000Z</time>
</wpt>
<wpt lat="34.7610688" lon="135.7919514">
<time>2026-01-01T00:09:57.000Z</time>
</wpt>
<wpt lat="34.7609530" lon="135.7919715">
<time>2026-01-01T00:09:58.000Z</time>
</wpt>
<wpt lat="34.7608451" lon="135.7919901">
<time>2026-01-01T00:09:59.000Z</time>
</wpt>
<wpt lat="34.7607453" lon="135.7920074">
<time>2026-01-01T00:10:00.000Z</time>
</wpt>
<wpt lat="34.7606534" lon="135.7920233">
<time>2026-01-01T00:10:01.000Z</time>
</wpt>
<wpt lat="34.7605695" lon="135.7920378">
<time>2026-01-01T00:10:02.000Z</time>
</wpt>
<wpt lat="34.7604936" lon="135.7920510">
<time>2026-01-01T00:10:03.000Z</time>
</wpt>
<wpt lat="34.7604257" lon="135.7920627">
<time>2026-01-01T00:10:04.000Z</time>
</wpt>
<wpt lat="34.7603657" lon="135.7920731">
<time>2026-01-01T00:10:05.000Z</time>
</wpt>
<wpt lat="34.7603138" lon="135.7920821">
<time>2026-01-01T00:10:06.000Z</time>
</wpt>
<wpt lat="34.7602699" lon="135.7920897">
<time>2026-01-01T00:10:07.000Z</time>
</wpt>
<wpt lat="34.7602339" lon="135.7920959">
<time>2026-01-01T00:10:08.000Z</time>
</wpt>
<wpt lat="34.7602060" lon="135.7921008">
<time>2026-01-01T00:10:09.000Z</time>
</wpt>
<wpt lat="34.7601860" lon="135.7921042">
<time>2026-01-01T00:10:10.000Z</time>
</wpt>
<wpt lat="34.7601740" lon="135.7921063">
<time>2026-01-01T00:10:11.000Z</time>
</wpt>
<wpt lat="34.7601700" lon="135.7921070">
<time>2026-01-01T00:10:12.000Z</time>
</wpt>
<wpt lat="34.7601700" lon="135.7921070">
<time>2026-01-01T00:10:13.000Z</time>
</wpt>
<wpt lat="34.7601700" lon="135.7921070">
<time>2026-01-01T00:10:14.000Z</time>
</wpt>
<wpt lat="34.7601700" lon="135.7921070">
<time>2026-01-01T00:10:15.000Z</time>
</wpt>
<wpt lat="34.7601700" lon="135.7921070">
<time>2026-01-01T00:10:16.000Z</time>
</wpt>
<wpt lat="34.7601700" lon="135.7921070">
<time>2026-01-01T00:10:17.000Z</time>
</wpt>
<wpt lat="34.7601700" lon="135.7921070">
<time>2026-01-01T00:10:18.000Z</time>
</wpt>
<wpt lat="34.7601700" lon="135.7921070">
<time>2026-01-01T00:10:19.000Z</time>
</wpt>
<wpt lat="34.7601700" lon="135.7921070">
<time>2026-01-01T00:10:20.000Z</time>
</wpt>
<wpt lat="34.7601700" lon="135.7921070">
<time>2026-01-01T00:10:21.000Z</time>
</wpt>
<wpt lat="34.7601700" lon="135.7921070">
<time>2026-01-01T00:10:22.000Z</time>
</wpt>
<wpt lat="34.7601700" lon="135.7921070">
<time>2026-01-01T00:10:23.000Z</time>
</wpt>
<wpt lat="34.7601700" lon="135.7921070">
<time>2026-01-01T00:10:24.000Z</time>
</wpt>
<wpt lat="34.7601700" lon="135.7921070">
<time>2026-01-01T00:10:25.000Z</time>
</wpt>
<wpt lat="34.7601700" lon="135.7921070">
<time>2026-01-01T00:10:26.000Z</time>
</wpt>
<wpt lat="34.7601700" lon="135.7921070">
<time>2026-01-01T00:10:27.000Z</time>
</wpt>
<wpt lat="34.7601700" lon="135.7921070">
<time>2026-01-01T00:10:28.000Z</time>
</wpt>
<wpt lat="34.7601700" lon="135.7921070">
<time>2026-01-01T00:10:29.000Z</time>
</wpt>
<wpt lat="34.7601700" lon="135.7921070">
<time>2026-01-01T00:10:30.000Z</time>
</wpt>
<wpt lat="34.7601700" lon="135.7921070">
<time>2026-01-01T00:10:31.000Z</time>
</wpt>
<wpt lat="34.7601700" lon="135.7921070">
<time>2026-01-01T00:10:32.000Z</time>
</wpt>
<wpt lat="34.7601700" lon="135.7921070">
<time>2026-01-01T00:10:33.000Z</time>
</wpt>
<wpt lat="34.7601700" lon="135.7921070">
<time>2026-01-01T00:10:34.000Z</time>
</wpt>
<wpt lat="34.7601700" lon="135.7921070">
<time>2026-01-01T00:10:35.000Z</time>
</wpt>
<wpt lat="34.7601700" lon="135.7921070">
<time>2026-01-01T00:10:36.000Z</time>
</wpt>
<wpt lat="34.7601700" lon="135.7921070">
<time>2026-01-01T00:10:37.000Z</time>
</wpt>
<wpt lat="34.7601700" lon="135.7921070">
<time>2026-01-01T00:10:38.000Z</time>
</wpt>
<wpt lat="34.7601700" lon="135.7921070">
<time>2026-01-01T00:10:39.000Z</time>
</wpt>
<wpt lat="34.7601700" lon="135.7921070">
<time>2026-01-01T00:10:40.000Z</time>
</wpt>
<wpt lat="34.7601700" lon="135.7921070">
<time>2026-01-01T00:10:41.000Z</time>
</wpt>
<wpt lat="34.7601700" lon="135.7921070">
<time>2026-01-01T00:10:42.000Z</time>
</wpt>
<wpt lat="34.7601700" lon="135.7921070">
<time>2026-01-01T00:10:43.000Z</time>
</wpt>
<wpt lat="34.7601700" lon="135.7921070">
<time>2026-01-01T00:10:44.000Z</time>
</wpt>
<wpt lat="34.7601700" lon="135.7921070">
<time>2026-01-01T00:10:45.000Z</time>
</wpt>
<wpt lat="34.7601700" lon="135.7921070">
<time>2026-01-01T00:10:46.000Z</time>
</wpt>
<wpt lat="34.7601700" lon="135.7921070">
<time>2026-01-01T00:10:47.000Z</time>
</wpt>
<wpt lat="34.7601700" lon="135.7921070">
<time>2026-01-01T00:10:48.000Z</time>
</wpt>
<wpt lat="34.7601700" lon="135.7921070">
<time>2026-01-01T00:10:49.000Z</time>
</wpt>
<wpt lat="34.7601673" lon="135.7921084">
<time>2026-01-01T00:10:50.000Z</time>
</wpt>
<wpt lat="34.7601593" lon="135.7921124">
<time>2026-01-01T00:10:51.000Z</time>
</wpt>
<wpt lat="34.7601460" lon="135.7921192">
<time>2026-01-01T00:10:52.000Z</time>
</wpt>
<wpt lat="34.7601273" lon="135.7921287">
<time>2026-01-01T00:10:53.000Z</time>
</wpt>
<wpt lat="34.7601032" lon="135.7921410">
<time>2026-01-01T00:10:54.000Z</time>
</wpt>
<wpt lat="34.7600739" lon="135.7921559">
<time>2026-01-01T00:10:55.000Z</time>
</wpt>
<wpt lat="34.7600392" lon="135.7921736">
<time>2026-01-01T00:10:56.000Z</time>
</wpt>
<wpt lat="34.7599991" lon="135.7921939">
<time>2026-01-01T00:10:57.000Z</time>
</wpt>
<wpt lat="34.7599537" lon="135.7922170">
<time>2026-01-01T00:10:58.000Z</time>
</wpt>
<wpt lat="34.7599030" lon="135.7922429">
<time>2026-01-01T00:10:59.000Z</time>
</wpt>
<wpt lat="34.7598469" lon="135.7922714">
<time>2026-01-01T00:11:00.000Z</time>
</wpt>
<wpt lat="34.7597855" lon="135.7923026">
<time>2026-01-01T00:11:01.000Z</time>
</wpt>
<wpt lat="34.7597187" lon="135.7923366">
<time>2026-01-01T00:11:02.000Z</time>
</wpt>
<wpt lat="34.7596466" lon="135.7923733">
<time>2026-01-01T00:11:03.000Z</time>
</wpt>
<wpt lat="34.7595692" lon="135.7924127">
<time>2026-01-01T00:11:04.000Z</time>
</wpt>
<wpt lat="34.7594864" lon="135.7924548">
<time>2026-01-01T00:11:05.000Z</time>
</wpt>
<wpt lat="34.7593983" lon="135.7924996">
<time>2026-01-01T00:11:06.000Z</time>
</wpt>
<wpt lat="34.7593048" lon="135.7925472">
<time>2026-01-01T00:11:07.000Z</time>
</wpt>
<wpt lat="34.7592060" lon="135.7925974">
<time>2026-01-01T00:11:08.000Z</time>
</wpt>
<wpt lat="34.7591019" lon="135.7926504">
<time>2026-01-01T00:11:09.000Z</time>
</wpt>
<wpt lat="34.7589924" lon="135.7927061">
<time>2026-01-01T00:11:10.000Z</time>
</wpt>
<wpt lat="34.7588776" lon="135.7927645">
<time>2026-01-01T00:11:11.000Z</time>
</wpt>
<wpt lat="34.7587574" lon="135.7928257">
<time>2026-01-01T00:11:12.000Z</time>
</wpt>
<wpt lat="34.7586319" lon="135.7928895">
<time>2026-01-01T00:11:13.000Z</time>
</wpt>
<wpt lat="34.7585010" lon="135.7929561">
<time>2026-01-01T00:11:14.000Z</time>
</wpt>
<wpt lat="34.7583648" lon="135.7930254">
<time>2026-01-01T00:11:15.000Z</time>
</wpt>
<wpt lat="34.7582247" lon="135.7930967">
<time>2026-01-01T00:11:16.000Z</time>
</wpt>
<wpt lat="34.7580843" lon="135.7931681">
<time>2026-01-01T00:11:17.000Z</time>
</wpt>
<wpt lat="34.7579440" lon="135.7932395">
<time>2026-01-01T00:11:18.000Z</time>
</wpt>
<wpt lat="34.7578036" lon="135.7933109">
<time>2026-01-01T00:11:19.000Z</time>
</wpt>
<wpt lat="34.7576632" lon="135.7933823">
<time>2026-01-01T00:11:20.000Z</time>
</wpt>
<wpt lat="34.7575229" lon="135.7934537">
<time>2026-01-01T00:11:21.000Z</time>
</wpt>
<wpt lat="34.7573825" lon="135.7935251">
<time>2026-01-01T00:11:22.000Z</time>
</wpt>
<wpt lat="34.7572421" lon="135.7935966">
<time>2026-01-01T00:11:23.000Z</time>
</wpt>
<wpt lat="34.7571017" lon="135.7936680">
<time>2026-01-01T00:11:24.000Z</time>
</wpt>
<wpt lat="34.7569614" lon="135.7937394">
<time>2026-01-01T00:11:25.000Z</time>
</wpt>
<wpt lat="34.7568210" lon="135.7938108">
<time>2026-01-01T00:11:26.000Z</time>
</wpt>
<wpt lat="34.7566806" lon="135.7938822">
<time>2026-01-01T00:11:27.000Z</time>
</wpt>
<wpt lat="34.7565403" lon="135.7939536">
<time>2026-01-01T00:11:28.000Z</time>
</wpt>
<wpt lat="34.7563999" lon="135.7940250">
<time>2026-01-01T00:11:29.000Z</time>
</wpt>
<wpt lat="34.7562595" lon="135.7940964">
<time>2026-01-01T00:11:30.000Z</time>
</wpt>
<wpt lat="34.7561192" lon="135.7941678">
<time>2026-01-01T00:11:31.000Z</time>
</wpt>
<wpt lat="34.7559788" lon="135.7942393">
<time>2026-01-01T00:11:32.000Z</time>
</wpt>
<wpt lat="34.7558384" lon="135.7943107">
<time>2026-01-01T00:11:33.000Z</time>
</wpt>
<wpt lat="34.7556981" lon="135.7943821">
<time>2026-01-01T00:11:34.000Z</time>
</wpt>
<wpt lat="34.7555577" lon="135.7944535">
<time>2026-01-01T00:11:35.000Z</time>
</wpt>
<wpt lat="34.7554173" lon="135.7945249">
<time>2026-01-01T00:11:36.000Z</time>
</wpt>
<wpt lat="34.7552770" lon="135.7945963">
<time>2026-01-01T00:11:37.000Z</time>
</wpt>
<wpt lat="34.7551366" lon="135.7946677">
<time>2026-01-01T00:11:38.000Z</time>
</wpt>
<wpt lat="34.7549962" lon="135.7947391">
<time>2026-01-01T00:11:39.000Z</time>
</wpt>
<wpt lat="34.7548559" lon="135.7948106">
<time>2026-01-01T00:11:40.000Z</time>
</wpt>
<wpt lat="34.7547155" lon="135.7948820">
<time>2026-01-01T00:11:41.000Z</time>
</wpt>
<wpt lat="34.7545751" lon="135.7949534">
<time>2026-01-01T00:11:42.000Z</time>
</wpt>
<wpt lat="34.7544348" lon="135.7950248">
<time>2026-01-01T00:11:43.000Z</time>
</wpt>
<wpt lat="34.7542944" lon="135.7950962">
<time>2026-01-01T00:11:44.000Z</time>
</wpt>
<wpt lat="34.7541540" lon="135.7951676">
<time>2026-01-01T00:11:45.000Z</time>
</wpt>
<wpt lat="34.7540137" lon="135.7952390">
<time>2026-01-01T00:11:46.000Z</time>
</wpt>
<wpt lat="34.7538733" lon="135.7953104">
<time>2026-01-01T00:11:47.000Z</time>
</wpt>
<wpt lat="34.7537329" lon="135.7953818">
<time>2026-01-01T00:11:48.000Z</time>
</wpt>
<wpt lat="34.7535925" lon="135.7954533">
<time>2026-01-01T00:11:49.000Z</time>
</wpt>
<wpt lat="34.7534522" lon="135.7955247">
<time>2026-01-01T00:11:50.000Z</time>
</wpt>
<wpt lat="34.7533118" lon="135.7955961">
<time>2026-01-01T00:11:51.000Z</time>
</wpt>
<wpt lat="34.7531714" lon="135.7956675">
<time>2026-01-01T00:11:52.000Z</time>
</wpt>
<wpt lat="34.7530311" lon="135.7957389">
<time>2026-01-01T00:11:53.000Z</time>
</wpt>
<wpt lat="34.7528907" lon="135.7958103">
<time>2026-01-01T00:11:54.000Z</time>
</wpt>
<wpt lat="34.7527503" lon="135.7958817">
<time>2026-01-01T00:11:55.000Z</time>
</wpt>
<wpt lat="34.7526100" lon="135.7959531">
<time>2026-01-01T00:11:56.000Z</time>
</wpt>
<wpt lat="34.7524696" lon="135.7960246">
<time>2026-01-01T00:11:57.000Z</time>
</wpt>
<wpt lat="34.7523292" lon="135.7960960">
<time>2026-01-01T00:11:58.000Z</time>
</wpt>
<wpt lat="34.7521889" lon="135.7961674">
<time>2026-01-01T00:11:59.000Z</time>
</wpt>
<wpt lat="34.7520485" lon="135.7962388">
<time>2026-01-01T00:12:00.000Z</time>
</wpt>
<wpt lat="34.7519081" lon="135.7963102">
<time>2026-01-01T00:12:01.000Z</time>
</wpt>
<wpt lat="34.7517678" lon="135.7963816">
<time>2026-01-01T00:12:02.000Z</time>
</wpt>
<wpt lat="34.7516274" lon="135.7964530">
<time>2026-01-01T00:12:03.000Z</time>
</wpt>
<wpt lat="34.7514870" lon="135.7965244">
<time>2026-01-01T00:12:04.000Z</time>
</wpt>
<wpt lat="34.7513467" lon="135.7965958">
<time>2026-01-01T00:12:05.000Z</time>
</wpt>
<wpt lat="34.7512063" lon="135.7966673">
<time>2026-01-01T00:12:06.000Z</time>
</wpt>
<wpt lat="34.7510659" lon="135.7967387">
<time>2026-01-01T00:12:07.000Z</time>
</wpt>
<wpt lat="34.7509256" lon="135.7968101">
<time>2026-01-01T00:12:08.000Z</time>
</wpt>
<wpt lat="34.7507852" lon="135.7968815">
<time>2026-01-01T00:12:09.000Z</time>
</wpt>
<wpt lat="34.7506448" lon="135.7969529">
<time>2026-01-01T00:12:10.000Z</time>
</wpt>
<wpt lat="34.7505045" lon="135.7970243">
<time>2026-01-01T00:12:11.000Z</time>
</wpt>
<wpt lat="34.7503641" lon="135.7970957">
<time>2026-01-01T00:12:12.000Z</time>
</wpt>
<wpt lat="34.7502237" lon="135.7971671">
<time>2026-01-01T00:12:13.000Z</time>
</wpt>
<wpt lat="34.7500834" lon="135.7972386">
<time>2026-01-01T00:12:14.000Z</time>
</wpt>
<wpt lat="34.7499430" lon="135.7973100">
<time>2026-01-01T00:12:15.000Z</time>
</wpt>
<wpt lat="34.7498026" lon="135.7973814">
<time>2026-01-01T00:12:16.000Z</time>
</wpt>
<wpt lat="34.7496622" lon="135.7974528">
<time>2026-01-01T00:12:17.000Z</time>
</wpt>
<wpt lat="34.7495219" lon="135.7975242">
<time>2026-01-01T00:12:18.000Z</time>
</wpt>
<wpt lat="34.7493815" lon="135.7975956">
<time>2026-01-01T00:12:19.000Z</time>
</wpt>
<wpt lat="34.7492411" lon="135.7976670">
<time>2026-01-01T00:12:20.000Z</time>
</wpt>
<wpt lat="34.7491008" lon="135.7977384">
<time>2026-01-01T00:12:21.000Z</time>
</wpt>
<wpt lat="34.7489604" lon="135.7978098">
<time>2026-01-01T00:12:22.000Z</time>
</wpt>
<wpt lat="34.7488200" lon="135.7978813">
<time>2026-01-01T00:12:23.000Z</time>
</wpt>
<wpt lat="34.7486797" lon="135.7979527">
<time>2026-01-01T00:12:24.000Z</time>
</wpt>
<wpt lat="34.7485393" lon="135.7980241">
<time>2026-01-01T00:12:25.000Z</time>
</wpt>
<wpt lat="34.7483989" lon="135.7980955">
<time>2026-01-01T00:12:26.000Z</time>
</wpt>
<wpt lat="34.7482586" lon="135.7981669">
<time>2026-01-01T00:12:27.000Z</time>
</wpt>
<wpt lat="34.7481182" lon="135.7982383">
<time>2026-01-01T00:12:28.000Z</time>
</wpt>
<wpt lat="34.7479778" lon="135.7983097">
<time>2026-01-01T00:12:29.000Z</time>
</wpt>
<wpt lat="34.7478375" lon="135.7983811">
<time>2026-01-01T00:12:30.000Z</time>
</wpt>
<wpt lat="34.7476971" lon="135.7984526">
<time>2026-01-01T00:12:31.000Z</time>
</wpt>
<wpt lat="34.7475567" lon="135.7985240">
<time>2026-01-01T00:12:32.000Z</time>
</wpt>
<wpt lat="34.7474164" lon="135.7985954">
<time>2026-01-01T00:12:33.000Z</time>
</wpt>
<wpt lat="34.7472760" lon="135.7986668">
<time>2026-01-01T00:12:34.000Z</time>
</wpt>
<wpt lat="34.7471356" lon="135.7987382">
<time>2026-01-01T00:12:35.000Z</time>
</wpt>
<wpt lat="34.7469953" lon="135.7988096">
<time>2026-01-01T00:12:36.000Z</time>
</wpt>
<wpt lat="34.7468549" lon="135.7988810">
<time>2026-01-01T00:12:37.000Z</time>
</wpt>
<wpt lat="34.7467145" lon="135.7989524">
<time>2026-01-01T00:12:38.000Z</time>
</wpt>
<wpt lat="34.7465742" lon="135.7990238">
<time>2026-01-01T00:12:39.000Z</time>
</wpt>
<wpt lat="34.7464338" lon="135.7990953">
<time>2026-01-01T00:12:40.000Z</time>
</wpt>
<wpt lat="34.7462934" lon="135.7991667">
<time>2026-01-01T00:12:41.000Z</time>
</wpt>
<wpt lat="34.7461530" lon="135.7992381">
<time>2026-01-01T00:12:42.000Z</time>
</wpt>
<wpt lat="34.7460127" lon="135.7993095">
<time>2026-01-01T00:12:43.000Z</time>
</wpt>
<wpt lat="34.7458723" lon="135.7993809">
<time>2026-01-01T00:12:44.000Z</time>
</wpt>
<wpt lat="34.7457319" lon="135.7994523">
<time>2026-01-01T00:12:45.000Z</time>
</wpt>
<wpt lat="34.7455916" lon="135.7995237">
<time>2026-01-01T00:12:46.000Z</time>
</wpt>
<wpt lat="34.7454512" lon="135.7995951">
<time>2026-01-01T00:12:47.000Z</time>
</wpt>
<wpt lat="34.7453108" lon="135.7996666">
<time>2026-01-01T00:12:48.000Z</time>
</wpt>
<wpt lat="34.7451705" lon="135.7997380">
<time>2026-01-01T00:12:49.000Z</time>
</wpt>
<wpt lat="34.7450301" lon="135.7998094">
<time>2026-01-01T00:12:50.000Z</time>
</wpt>
<wpt lat="34.7448897" lon="135.7998808">
<time>2026-01-01T00:12:51.000Z</time>
</wpt>
<wpt lat="34.7447494" lon="135.7999522">
<time>2026-01-01T00:12:52.000Z</time>
</wpt>
<wpt lat="34.7446090" lon="135.8000236">
<time>2026-01-01T00:12:53.000Z</time>
</wpt>
<wpt lat="34.7444686" lon="135.8000950">
<time>2026-01-01T00:12:54.000Z</time>
</wpt>
<wpt lat="34.7443283" lon="135.8001664">
<time>2026-01-01T00:12:55.000Z</time>
</wpt>
<wpt lat="34.7441879" lon="135.8002378">
<time>2026-01-01T00:12:56.000Z</time>
</wpt>
<wpt lat="34.7440475" lon="135.8003093">
<time>2026-01-01T00:12:57.000Z</time>
</wpt>
<wpt lat="34.7439072" lon="135.8003807">
<time>2026-01-01T00:12:58.000Z</time>
</wpt>
<wpt lat="34.7437668" lon="135.8004521">
<time>2026-01-01T00:12:59.000Z</time>
</wpt>
<wpt lat="34.7436264" lon="135.8005235">
<time>2026-01-01T00:13:00.000Z</time>
</wpt>
<wpt lat="34.7434861" lon="135.8005949">
<time>2026-01-01T00:13:01.000Z</time>
</wpt>
<wpt lat="34.7433457" lon="135.8006663">
<time>2026-01-01T00:13:02.000Z</time>
</wpt>
<wpt lat="34.7432053" lon="135.8007377">
<time>2026-01-01T00:13:03.000Z</time>
</wpt>
<wpt lat="34.7430650" lon="135.8008091">
<time>2026-01-01T00:13:04.000Z</time>
</wpt>
<wpt lat="34.7429246" lon="135.8008806">
<time>2026-01-01T00:13:05.000Z</time>
</wpt>
<wpt lat="34.7427842" lon="135.8009520">
<time>2026-01-01T00:13:06.000Z</time>
</wpt>
<wpt lat="34.7426438" lon="135.8010234">
<time>2026-01-01T00:13:07.000Z</time>
</wpt>
<wpt lat="34.7425035" lon="135.8010948">
<time>2026-01-01T00:13:08.000Z</time>
</wpt>
<wpt lat="34.7423631" lon="135.8011662">
<time>2026-01-01T00:13:09.000Z</time>
</wpt>
<wpt lat="34.7422227" lon="135.8012376">
<time>2026-01-01T00:13:10.000Z</time>
</wpt>
<wpt lat="34.7420824" lon="135.8013090">
<time>2026-01-01T00:13:11.000Z</time>
</wpt>
<wpt lat="34.7419420" lon="135.8013804">
<time>2026-01-01T00:13:12.000Z</time>
</wpt>
<wpt lat="34.7418016" lon="135.8014518">
<time>2026-01-01T00:13:13.000Z</time>
</wpt>
<wpt lat="34.7416613" lon="135.8015233">
<time>2026-01-01T00:13:14.000Z</time>
</wpt>
<wpt lat="34.7415209" lon="135.8015947">
<time>2026-01-01T00:13:15.000Z</time>
</wpt>
<wpt lat="34.7413805" lon="135.8016661">
<time>2026-01-01T00:13:16.000Z</time>
</wpt>
<wpt lat="34.7412402" lon="135.8017375">
<time>2026-01-01T00:13:17.000Z</time>
</wpt>
<wpt lat="34.7410998" lon="135.8018089">
<time>2026-01-01T00:13:18.000Z</time>
</wpt>
<wpt lat="34.7409594" lon="135.8018803">
<time>2026-01-01T00:13:19.000Z</time>
</wpt>
<wpt lat="34.7408191" lon="135.8019517">
<time>2026-01-01T00:13:20.000Z</time>
</wpt>
<wpt lat="34.7406787" lon="135.8020231">
<time>2026-01-01T00:13:21.000Z</time>
</wpt>
<wpt lat="34.7405383" lon="135.8020946">
<time>2026-01-01T00:13:22.000Z</time>
</wpt>
<wpt lat="34.7403980" lon="135.8021660">
<time>2026-01-01T00:13:23.000Z</time>
</wpt>
<wpt lat="34.7402576" lon="135.8022374">
<time>2026-01-01T00:13:24.000Z</time>
</wpt>
<wpt lat="34.7401172" lon="135.8023088">
<time>2026-01-01T00:13:25.000Z</time>
</wpt>
<wpt lat="34.7399769" lon="135.8023802">
<time>2026-01-01T00:13:26.000Z</time>
</wpt>
<wpt lat="34.7398365" lon="135.8024516">
<time>2026-01-01T00:13:27.000Z</time>
</wpt>
<wpt lat="34.7396961" lon="135.8025230">
<time>2026-01-01T00:13:28.000Z</time>
</wpt>
<wpt lat="34.7395558" lon="135.8025944">
<time>2026-01-01T00:13:29.000Z</time>
</wpt>
<wpt lat="34.7394154" lon="135.8026658">
<time>2026-01-01T00:13:30.000Z</time>
</wpt>
<wpt lat="34.7392750" lon="135.8027373">
<time>2026-01-01T00:13:31.000Z</time>
</wpt>
<wpt lat="34.7391353" lon="135.8028083">
<time>2026-01-01T00:13:32.000Z</time>
</wpt>
<wpt lat="34.7390014" lon="135.8028764">
<time>2026-01-01T00:13:33.000Z</time>
</wpt>
<wpt lat="34.7388744" lon="135.8029411">
<time>2026-01-01T00:13:34.000Z</time>
</wpt>
<wpt lat="34.7387542" lon="135.8030022">
<time>2026-01-01T00:13:35.000Z</time>
</wpt>
<wpt lat="34.7386409" lon="135.8030598">
<time>2026-01-01T00:13:36.000Z</time>
</wpt>
<wpt lat="34.7385345" lon="135.8031140">
<time>2026-01-01T00:13:37.000Z</time>
</wpt>
<wpt lat="34.7384349" lon="135.8031647">
<time>2026-01-01T00:13:38.000Z</time>
</wpt>
<wpt lat="34.7383422" lon="135.8032118">
<time>2026-01-01T00:13:39.000Z</time>
</wpt>
<wpt lat="34.7382564" lon="135.8032555">
<time>2026-01-01T00:13:40.000Z</time>
</wpt>
<wpt lat="34.7381774" lon="135.8032957">
<time>2026-01-01T00:13:41.000Z</time>
</wpt>
<wpt lat="34.7381053" lon="135.8033323">
<time>2026-01-01T00:13:42.000Z</time>
</wpt>
<wpt lat="34.7380401" lon="135.8033655">
<time>2026-01-01T00:13:43.000Z</time>
</wpt>
<wpt lat="34.7379817" lon="135.8033952">
<time>2026-01-01T00:13:44.000Z</time>
</wpt>
<wpt lat="34.7379302" lon="135.8034214">
<time>2026-01-01T00:13:45.000Z</time>
</wpt>
<wpt lat="34.7378856" lon="135.8034441">
<time>2026-01-01T00:13:46.000Z</time>
</wpt>
<wpt lat="34.7378478" lon="135.8034633">
<time>2026-01-01T00:13:47.000Z</time>
</wpt>
<wpt lat="34.7378169" lon="135.8034791">
<time>2026-01-01T00:13:48.000Z</time>
</wpt>
<wpt lat="34.7377929" lon="135.8034913">
<time>2026-01-01T00:13:49.000Z</time>
</wpt>
<wpt lat="34.7377757" lon="135.8035000">
<time>2026-01-01T00:13:50.000Z</time>
</wpt>
<wpt lat="34.7377654" lon="135.8035053">
<time>2026-01-01T00:13:51.000Z</time>
</wpt>
<wpt lat="34.7377620" lon="135.8035070">
<time>2026-01-01T00:13:52.000Z</time>
</wpt>
<wpt lat="34.7377620" lon="135.8035070">
<time>2026-01-01T00:13:53.000Z</time>
</wpt>
<wpt lat="34.7377620" lon="135.8035070">
<time>2026-01-01T00:13:54.000Z</time>
</wpt>
<wpt lat="34.7377620" lon="135.8035070">
<time>2026-01-01T00:13:55.000Z</time>
</wpt>
<wpt lat="34.7377620" lon="135.8035070">
<time>2026-01-01T00:13:56.000Z</time>
</wpt>
<wpt lat="34.7377620" lon="135.8035070">
<time>2026-01-01T00:13:57.000Z</time>
</wpt>
<wpt lat="34.7377620" lon="135.8035070">
<time>2026-01-01T00:13:58.000Z</time>
</wpt>
<wpt lat="34.7377620" lon="135.8035070">
<time>2026-01-01T00:13:59.000Z</time>
</wpt>
<wpt lat="34.7377620" lon="135.8035070">
<time>2026-01-01T00:14:00.000Z</time>
</wpt>
<wpt lat="34.7377620" lon="135.8035070">
<time>2026-01-01T00:14:01.000Z</time>
</wpt>
<wpt lat="34.7377620" lon="135.8035070">
<time>2026-01-01T00:14:02.000Z</time>
</wpt>
<wpt lat="34.7377620" lon="135.8035070">
<time>2026-01-01T00:14:03.000Z</time>
</wpt>
<wpt lat="34.7377620" lon="135.8035070">
<time>2026-01-01T00:14:04.000Z</time>
</wpt>
<wpt lat="34.7377620" lon="135.8035070">
<time>2026-01-01T00:14:05.000Z</time>
</wpt>
<wpt lat="34.7377620" lon="135.8035070">
<time>2026-01-01T00:14:06.000Z</time>
</wpt>
<wpt lat="34.7377620" lon="135.8035070">
<time>2026-01-01T00:14:07.000Z</time>
</wpt>
<wpt lat="34.7377620" lon="135.8035070">
<time>2026-01-01T00:14:08.000Z</time>
</wpt>
<wpt lat="34.7377620" lon="135.8035070">
<time>2026-01-01T00:14:09.000Z</time>
</wpt>
<wpt lat="34.7377620" lon="135.8035070">
<time>2026-01-01T00:14:10.000Z</time>
</wpt>
<wpt lat="34.7377620" lon="135.8035070">
<time>2026-01-01T00:14:11.000Z</time>
</wpt>
<wpt lat="34.7377620" lon="135.8035070">
<time>2026-01-01T00:14:12.000Z</time>
</wpt>
<wpt lat="34.7377620" lon="135.8035070">
<time>2026-01-01T00:14:13.000Z</time>
</wpt>
<wpt lat="34.7377620" lon="135.8035070">
<time>2026-01-01T00:14:14.000Z</time>
</wpt>
<wpt lat="34.7377620" lon="135.8035070">
<time>2026-01-01T00:14:15.000Z</time>
</wpt>
<wpt lat="34.7377620" lon="135.8035070">
<time>2026-01-01T00:14:16.000Z</time>
</wpt>
<wpt lat="34.7377620" lon="135.8035070">
<time>2026-01-01T00:14:17.000Z</time>
</wpt>
<wpt lat="34.7377620" lon="135.8035070">
<time>2026-01-01T00:14:18.000Z</time>
</wpt>
<wpt lat="34.7377620" lon="135.8035070">
<time>2026-01-01T00:14:19.000Z</time>
</wpt>
<wpt lat="34.7377620" lon="135.8035070">
<time>2026-01-01T00:14:20.000Z</time>
</wpt>
<wpt lat="34.7377620" lon="135.8035070">
<time>2026-01-01T00:14:21.000Z</time>
</wpt>
<wpt lat="34.7377620" lon="135.8035070">
<time>2026-01-01T00:14:22.000Z</time>
</wpt>
<wpt lat="34.7377620" lon="135.8035070">
<time>2026-01-01T00:14:23.000Z</time>
</wpt>
<wpt lat="34.7377620" lon="135.8035070">
<time>2026-01-01T00:14:24.000Z</time>
</wpt>
<wpt lat="34.7377620" lon="135.8035070">
<time>2026-01-01T00:14:25.000Z</time>
</wpt>
<wpt lat="34.7377620" lon="135.8035070">
<time>2026-01-01T00:14:26.000Z</time>
</wpt>
<wpt lat="34.7377620" lon="135.8035070">
<time>2026-01-01T00:14:27.000Z</time>
</wpt>
<wpt lat="34.7377620" lon="135.8035070">
<time>2026-01-01T00:14:28.000Z</time>
</wpt>
<wpt lat="34.7377620" lon="135.8035070">
<time>2026-01-01T00:14:29.000Z</time>
</wpt>
<wpt lat="34.7377617" lon="135.8035103">
<time>2026-01-01T00:14:30.000Z</time>
</wpt>
<wpt lat="34.7377609" lon="135.8035201">
<time>2026-01-01T00:14:31.000Z</time>
</wpt>
<wpt lat="34.7377595" lon="135.8035364">
<time>2026-01-01T00:14:32.000Z</time>
</wpt>
<wpt lat="34.7377576" lon="135.8035593">
<time>2026-01-01T00:14:33.000Z</time>
</wpt>
<wpt lat="34.7377551" lon="135.8035887">
<time>2026-01-01T00:14:34.000Z</time>
</wpt>
<wpt lat="34.7377521" lon="135.8036246">
<time>2026-01-01T00:14:35.000Z</time>
</wpt>
<wpt lat="34.7377485" lon="135.8036671">
<time>2026-01-01T00:14:36.000Z</time>
</wpt>
<wpt lat="34.7377443" lon="135.8037161">
<time>2026-01-01T00:14:37.000Z</time>
</wpt>
<wpt lat="34.7377396" lon="135.8037717">
<time>2026-01-01T00:14:38.000Z</time>
</wpt>
<wpt lat="34.7377344" lon="135.8038338">
<time>2026-01-01T00:14:39.000Z</time>
</wpt>
<wpt lat="34.7377286" lon="135.8039024">
<time>2026-01-01T00:14:40.000Z</time>
</wpt>
<wpt lat="34.7377222" lon="135.8039776">
<time>2026-01-01T00:14:41.000Z</time>
</wpt>
<wpt lat="34.7377153" lon="135.8040592">
<time>2026-01-01T00:14:42.000Z</time>
</wpt>
<wpt lat="34.7377078" lon="135.8041475">
<time>2026-01-01T00:14:43.000Z</time>
</wpt>
<wpt lat="34.7376998" lon="135.8042422">
<time>2026-01-01T00:14:44.000Z</time>
</wpt>
<wpt lat="34.7376913" lon="135.8043435">
<time>2026-01-01T00:14:45.000Z</time>
</wpt>
<wpt lat="34.7376821" lon="135.8044514">
<time>2026-01-01T00:14:46.000Z</time>
</wpt>
<wpt lat="34.7376725" lon="135.8045657">
<time>2026-01-01T00:14:47.000Z</time>
</wpt>
<wpt lat="34.7376622" lon="135.8046867">
<time>2026-01-01T00:14:48.000Z</time>
</wpt>
<wpt lat="34.7376515" lon="135.8048141">
<time>2026-01-01T00:14:49.000Z</time>
</wpt>
<wpt lat="34.7376401" lon="135.8049481">
<time>2026-01-01T00:14:50.000Z</time>
</wpt>
<wpt lat="34.7376283" lon="135.8050886">
<time>2026-01-01T00:14:51.000Z</time>
</wpt>
<wpt lat="34.7376158" lon="135.8052356">
<time>2026-01-01T00:14:52.000Z</time>
</wpt>
<wpt lat="34.7376028" lon="135.8053892">
<time>2026-01-01T00:14:53.000Z</time>
</wpt>
<wpt lat="34.7375893" lon="135.8055493">
<time>2026-01-01T00:14:54.000Z</time>
</wpt>
<wpt lat="34.7375753" lon="135.8057155">
<time>2026-01-01T00:14:55.000Z</time>
</wpt>
<wpt lat="34.7375611" lon="135.8058828">
<time>2026-01-01T00:14:56.000Z</time>
</wpt>
<wpt lat="34.7375470" lon="135.8060500">
<time>2026-01-01T00:14:57.000Z</time>
</wpt>
<wpt lat="34.7375328" lon="135.8062173">
<time>2026-01-01T00:14:58.000Z</time>
</wpt>
<wpt lat="34.7375187" lon="135.8063846">
<time>2026-01-01T00:14:59.000Z</time>
</wpt>
<wpt lat="34.7375045" lon="135.8065519">
<time>2026-01-01T00:15:00.000Z</time>
</wpt>
<wpt lat="34.7374904" lon="135.8067192">
<time>2026-01-01T00:15:01.000Z</time>
</wpt>
<wpt lat="34.7374762" lon="135.8068865">
<time>2026-01-01T00:15:02.000Z</time>
</wpt>
<wpt lat="34.7374621" lon="135.8070538">
<time>2026-01-01T00:15:03.000Z</time>
</wpt>
<wpt lat="34.7374479" lon="135.8072211">
<time>2026-01-01T00:15:04.000Z</time>
</wpt>
<wpt lat="34.7374338" lon="135.8073883">
<time>2026-01-01T00:15:05.000Z</time>
</wpt>
<wpt lat="34.7374197" lon="135.8075556">
<time>2026-01-01T00:15:06.000Z</time>
</wpt>
<wpt lat="34.7374055" lon="135.8077229">
<time>2026-01-01T00:15:07.000Z</time>
</wpt>
<wpt lat="34.7373914" lon="135.8078902">
<time>2026-01-01T00:15:08.000Z</time>
</wpt>
<wpt lat="34.7373772" lon="135.8080575">
<time>2026-01-01T00:15:09.000Z</time>
</wpt>
<wpt lat="34.7373631" lon="135.8082248">
<time>2026-01-01T00:15:10.000Z</time>
</wpt>
<wpt lat="34.7373489" lon="135.8083921">
<time>2026-01-01T00:15:11.000Z</time>
</wpt>
<wpt lat="34.7373348" lon="135.8085594">
<time>2026-01-01T00:15:12.000Z</time>
</wpt>
<wpt lat="34.7373206" lon="135.8087267">
<time>2026-01-01T00:15:13.000Z</time>
</wpt>
<wpt lat="34.7373065" lon="135.8088939">
<time>2026-01-01T00:15:14.000Z</time>
</wpt>
<wpt lat="34.7372923" lon="135.8090612">
<time>2026-01-01T00:15:15.000Z</time>
</wpt>
<wpt lat="34.7372782" lon="135.8092285">
<time>2026-01-01T00:15:16.000Z</time>
</wpt>
<wpt lat="34.7372640" lon="135.8093958">
<time>2026-01-01T00:15:17.000Z</time>
</wpt>
<wpt lat="34.7372499" lon="135.8095631">
<time>2026-01-01T00:15:18.000Z</time>
</wpt>
<wpt lat="34.7372358" lon="135.8097304">
<time>2026-01-01T00:15:19.000Z</time>
</wpt>
<wpt lat="34.7372216" lon="135.8098977">
<time>2026-01-01T00:15:20.000Z</time>
</wpt>
<wpt lat="34.7372075" lon="135.8100650">
<time>2026-01-01T00:15:21.000Z</time>
</wpt>
<wpt lat="34.7371933" lon="135.8102323">
<time>2026-01-01T00:15:22.000Z</time>
</wpt>
<wpt lat="34.7371792" lon="135.8103995">
<time>2026-01-01T00:15:23.000Z</time>
</wpt>
<wpt lat="34.7371650" lon="135.8105668">
<time>2026-01-01T00:15:24.000Z</time>
</wpt>
<wpt lat="34.7371509" lon="135.8107341">
<time>2026-01-01T00:15:25.000Z</time>
</wpt>
<wpt lat="34.7371367" lon="135.8109014">
<time>2026-01-01T00:15:26.000Z</time>
</wpt>
<wpt lat="34.7371226" lon="135.8110687">
<time>2026-01-01T00:15:27.000Z</time>
</wpt>
<wpt lat="34.7371084" lon="135.8112360">
<time>2026-01-01T00:15:28.000Z</time>
</wpt>
<wpt lat="34.7370943" lon="135.8114033">
<time>2026-01-01T00:15:29.000Z</time>
</wpt>
<wpt lat="34.7370802" lon="135.8115706">
<time>2026-01-01T00:15:30.000Z</time>
</wpt>
<wpt lat="34.7370660" lon="135.8117379">
<time>2026-01-01T00:15:31.000Z</time>
</wpt>
<wpt lat="34.7370519" lon="135.8119051">
<time>2026-01-01T00:15:32.000Z</time>
</wpt>
<wpt lat="34.7370377" lon="135.8120724">
<time>2026-01-01T00:15:33.000Z</time>
</wpt>
<wpt lat="34.7370236" lon="135.8122397">
<time>2026-01-01T00:15:34.000Z</time>
</wpt>
<wpt lat="34.7370094" lon="135.8124070">
<time>2026-01-01T00:15:35.000Z</time>
</wpt>
<wpt lat="34.7369953" lon="135.8125743">
<time>2026-01-01T00:15:36.000Z</time>
</wpt>
<wpt lat="34.7369811" lon="135.8127416">
<time>2026-01-01T00:15:37.000Z</time>
</wpt>
<wpt lat="34.7369670" lon="135.8129089">
<time>2026-01-01T00:15:38.000Z</time>
</wpt>
<wpt lat="34.7369528" lon="135.8130762">
<time>2026-01-01T00:15:39.000Z</time>
</wpt>
<wpt lat="34.7369387" lon="135.8132435">
<time>2026-01-01T00:15:40.000Z</time>
</wpt>
<wpt lat="34.7369246" lon="135.8134107">
<time>2026-01-01T00:15:41.000Z</time>
</wpt>
<wpt lat="34.7369104" lon="135.8135780">
<time>2026-01-01T00:15:42.000Z</time>
</wpt>
<wpt lat="34.7368963" lon="135.8137453">
<time>2026-01-01T00:15:43.000Z</time>
</wpt>
<wpt lat="34.7368821" lon="135.8139126">
<time>2026-01-01T00:15:44.000Z</time>
</wpt>
<wpt lat="34.7368680" lon="135.8140799">
<time>2026-01-01T00:15:45.000Z</time>
</wpt>
<wpt lat="34.7368538" lon="135.8142472">
<time>2026-01-01T00:15:46.000Z</time>
</wpt>
<wpt lat="34.7368397" lon="135.8144145">
<time>2026-01-01T00:15:47.000Z</time>
</wpt>
<wpt lat="34.7368255" lon="135.8145818">
<time>2026-01-01T00:15:48.000Z</time>
</wpt>
<wpt lat="34.7368114" lon="135.8147490">
<time>2026-01-01T00:15:49.000Z</time>
</wpt>
<wpt lat="34.7367972" lon="135.8149163">
<time>2026-01-01T00:15:50.000Z</time>
</wpt>
<wpt lat="34.7367831" lon="135.8150836">
<time>2026-01-01T00:15:51.000Z</time>
</wpt>
<wpt lat="34.7367690" lon="135.8152509">
<time>2026-01-01T00:15:52.000Z</time>
</wpt>
<wpt lat="34.7367548" lon="135.8154182">
<time>2026-01-01T00:15:53.000Z</time>
</wpt>
<wpt lat="34.7367407" lon="135.8155855">
<time>2026-01-01T00:15:54.000Z</time>
</wpt>
<wpt lat="34.7367265" lon="135.8157528">
<time>2026-01-01T00:15:55.000Z</time>
</wpt>
<wpt lat="34.7367124" lon="135.8159201">
<time>2026-01-01T00:15:56.000Z</time>
</wpt>
<wpt lat="34.7366982" lon="135.8160874">
<time>2026-01-01T00:15:57.000Z</time>
</wpt>
<wpt lat="34.7366841" lon="135.8162546">
<time>2026-01-01T00:15:58.000Z</time>
</wpt>
<wpt lat="34.7366699" lon="135.8164219">
<time>2026-01-01T00:15:59.000Z</time>
</wpt>
<wpt lat="34.7366558" lon="135.8165892">
<time>2026-01-01T00:16:00.000Z</time>
</wpt>
<wpt lat="34.7366416" lon="135.8167565">
<time>2026-01-01T00:16:01.000Z</time>
</wpt>
<wpt lat="34.7366275" lon="135.8169238">
<time>2026-01-01T00:16:02.000Z</time>
</wpt>
<wpt lat="34.7366133" lon="135.8170911">
<time>2026-01-01T00:16:03.000Z</time>
</wpt>
<wpt lat="34.7365992" lon="135.8172584">
<time>2026-01-01T00:16:04.000Z</time>
</wpt>
<wpt lat="34.7365851" lon="135.8174257">
<time>2026-01-01T00:16:05.000Z</time>
</wpt>
<wpt lat="34.7365709" lon="135.8175930">
<time>2026-01-01T00:16:06.000Z</time>
</wpt>
<wpt lat="34.7365568" lon="135.8177602">
<time>2026-01-01T00:16:07.000Z</time>
</wpt>
<wpt lat="34.7365426" lon="135.8179275">
<time>2026-01-01T00:16:08.000Z</time>
</wpt>
<wpt lat="34.7365285" lon="135.8180948">
<time>2026-01-01T00:16:09.000Z</time>
</wpt>
<wpt lat="34.7365143" lon="135.8182621">
<time>2026-01-01T00:16:10.000Z</time>
</wpt>
<wpt lat="34.7365002" lon="135.8184294">
<time>2026-01-01T00:16:11.000Z</time>
</wpt>
<wpt lat="34.7364860" lon="135.8185967">
<time>2026-01-01T00:16:12.000Z</time>
</wpt>
<wpt lat="34.7364719" lon="135.8187640">
<time>2026-01-01T00:16:13.000Z</time>
</wpt>
<wpt lat="34.7364577" lon="135.8189313">
<time>2026-01-01T00:16:14.000Z</time>
</wpt>
<wpt lat="34.7364436" lon="135.8190986">
<time>2026-01-01T00:16:15.000Z</time>
</wpt>
<wpt lat="34.7364295" lon="135.8192658">
<time>2026-01-01T00:16:16.000Z</time>
</wpt>
<wpt lat="34.7364153" lon="135.8194331">
<time>2026-01-01T00:16:17.000Z</time>
</wpt>
<wpt lat="34.7364012" lon="135.8196004">
<time>2026-01-01T00:16:18.000Z</time>
</wpt>
<wpt lat="34.7363870" lon="135.8197677">
<time>2026-01-01T00:16:19.000Z</time>
</wpt>
<wpt lat="34.7363729" lon="135.8199350">
<time>2026-01-01T00:16:20.000Z</time>
</wpt>
<wpt lat="34.7363587" lon="135.8201023">
<time>2026-01-01T00:16:21.000Z</time>
</wpt>
<wpt lat="34.7363446" lon="135.8202696">
<time>2026-01-01T00:16:22.000Z</time>
</wpt>
<wpt lat="34.7363304" lon="135.8204369">
<time>2026-01-01T00:16:23.000Z</time>
</wpt>
<wpt lat="34.7363163" lon="135.8206042">
<time>2026-01-01T00:16:24.000Z</time>
</wpt>
<wpt lat="34.7363021" lon="135.8207714">
<time>2026-01-01T00:16:25.000Z</time>
</wpt>
<wpt lat="34.7362880" lon="135.8209387">
<time>2026-01-01T00:16:26.000Z</time>
</wpt>
<wpt lat="34.7362739" lon="135.8211060">
<time>2026-01-01T00:16:27.000Z</time>
</wpt>
<wpt lat="34.7362597" lon="135.8212733">
<time>2026-01-01T00:16:28.000Z</time>
</wpt>
<wpt lat="34.7362456" lon="135.8214406">
<time>2026-01-01T00:16:29.000Z</time>
</wpt>
<wpt lat="34.7362314" lon="135.8216079">
<time>2026-01-01T00:16:30.000Z</time>
</wpt>
<wpt lat="34.7362173" lon="135.8217752">
<time>2026-01-01T00:16:31.000Z</time>
</wpt>
<wpt lat="34.7362031" lon="135.8219425">
<time>2026-01-01T00:16:32.000Z</time>
</wpt>
<wpt lat="34.7361890" lon="135.8221098">
<time>2026-01-01T00:16:33.000Z</time>
</wpt>
<wpt lat="34.7361748" lon="135.8222770">
<time>2026-01-01T00:16:34.000Z</time>
</wpt>
<wpt lat="34.7361607" lon="135.8224443">
<time>2026-01-01T00:16:35.000Z</time>
</wpt>
<wpt lat="34.7361465" lon="135.8226116">
<time>2026-01-01T00:16:36.000Z</time>
</wpt>
<wpt lat="34.7361324" lon="135.8227789">
<time>2026-01-01T00:16:37.000Z</time>
</wpt>
<wpt lat="34.7361182" lon="135.8229462">
<time>2026-01-01T00:16:38.000Z</time>
</wpt>
<wpt lat="34.7361041" lon="135.8231135">
<time>2026-01-01T00:16:39.000Z</time>
</wpt>
<wpt lat="34.7360903" lon="135.8232773">
<time>2026-01-01T00:16:40.000Z</time>
</wpt>
<wpt lat="34.7360771" lon="135.8234328">
<time>2026-01-01T00:16:41.000Z</time>
</wpt>
<wpt lat="34.7360647" lon="135.8235798">
<time>2026-01-01T00:16:42.000Z</time>
</wpt>
<wpt lat="34.7360529" lon="135.8237184">
<time>2026-01-01T00:16:43.000Z</time>
</wpt>
<wpt lat="34.7360419" lon="135.8238487">
<time>2026-01-01T00:16:44.000Z</time>
</wpt>
<wpt lat="34.7360316" lon="135.8239705">
<time>2026-01-01T00:16:45.000Z</time>
</wpt>
<wpt lat="34.7360220" lon="135.8240840">
<time>2026-01-01T00:16:46.000Z</time>
</wpt>
<wpt lat="34.7360132" lon="135.8241890">
<time>2026-01-01T00:16:47.000Z</time>
</wpt>
<wpt lat="34.7360050" lon="135.8242856">
<time>2026-01-01T00:16:48.000Z</time>
</wpt>
<wpt lat="34.7359975" lon="135.8243739">
<time>2026-01-01T00:16:49.000Z</time>
</wpt>
<wpt lat="34.7359908" lon="135.8244537">
<time>2026-01-01T00:16:50.000Z</time>
</wpt>
<wpt lat="34.7359847" lon="135.8245251">
<time>2026-01-01T00:16:51.000Z</time>
</wpt>
<wpt lat="34.7359794" lon="135.8245881">
<time>2026-01-01T00:16:52.000Z</time>
</wpt>
<wpt lat="34.7359748" lon="135.8246428">
<time>2026-01-01T00:16:53.000Z</time>
</wpt>
<wpt lat="34.7359709" lon="135.8246890">
<time>2026-01-01T00:16:54.000Z</time>
</wpt>
<wpt lat="34.7359677" lon="135.8247268">
<time>2026-01-01T00:16:55.000Z</time>
</wpt>
<wpt lat="34.7359652" lon="135.8247562">
<time>2026-01-01T00:16:56.000Z</time>
</wpt>
<wpt lat="34.7359634" lon="135.8247772">
<time>2026-01-01T00:16:57.000Z</time>
</wpt>
<wpt lat="34.7359624" lon="135.8247898">
<time>2026-01-01T00:16:58.000Z</time>
</wpt>
<wpt lat="34.7359620" lon="135.8247940">
<time>2026-01-01T00:16:59.000Z</time>
</wpt>
<wpt lat="34.7359620" lon="135.8247940">
<time>2026-01-01T00:17:00.000Z</time>
</wpt>
</gpx>
